<?xml version="1.0" encoding="UTF-8"?>
<gpx version="1.1" creator="GPX Viewer PRO 1.42.6 - https://vecturagames.com/gpxviewerpro" schemaLocation="http://www.topografix.com/GPX/1/1 http://www.topografix.com/GPX/1/1/gpx.xsd http://www.garmin.com/xmlschemas/GpxExtensions/v3 https://www8.garmin.com/xmlschemas/GpxExtensionsv3.xsd http://www.garmin.com/xmlschemas/TrackPointExtension/v2 https://www8.garmin.com/xmlschemas/TrackPointExtensionv2.xsd http://www.garmin.com/xmlschemas/PowerExtension/v1 https://www8.garmin.com/xmlschemas/PowerExtensionv1.xsd https://www.vecturagames.com/xmlschemas/GpxWaypointExtension/v1 https://www.vecturagames.com/xmlschemas/GpxWaypointExtensionv1.xsd" xmlns="http://www.topografix.com/GPX/1/1" xmlns:xsi="http://www.w3.org/2001/XMLSchema-instance" xsi:schemaLocation="http://www.topografix.com/GPX/1/1 http://www.topografix.com/GPX/1/1/gpx.xsd http://www.garmin.com/xmlschemas/GpxExtensions/v3 http://www.garmin.com/xmlschemas/GpxExtensionsv3.xsd http://www.garmin.com/xmlschemas/TrackPointExtension/v1 http://www.garmin.com/xmlschemas/TrackPointExtensionv1.xsd http://www.garmin.com/xmlschemas/PowerExtension/v1 http://www.garmin.com/xmlschemas/PowerExtensionv1.xsd http://www.topografix.com/GPX/gpx_style/0/2 http://www.topografix.com/GPX/gpx_style/0/2/gpx_style.xsd" xmlns:gpxtpx="http://www.garmin.com/xmlschemas/TrackPointExtension/v1" xmlns:gpxx="http://www.garmin.com/xmlschemas/GpxExtensions/v3" xmlns:gpxpx="http://www.garmin.com/xmlschemas/PowerExtension/v1" xmlns:gpx_style="http://www.topografix.com/GPX/gpx_style/0/2">
  <metadata>
    <name>Campiglia_riomaggiore</name>
    <author>
      <name>gpx.studio</name>
      <link href="https://gpx.studio"/>
    </author>
    <time>2023-03-18T12:31:49.361Z</time>
  </metadata>
  <wpt lat="44.088224" lon="9.777434">
    <ele>501.751953</ele>
    <name>Vino &amp; Snacks</name>
  </wpt>
  <wpt lat="44.092855" lon="9.766739">
    <ele>504.563354</ele>
    <name>Colle del telegrafo</name>
  </wpt>
  <trk>
    <name>Campiglia riomaggiore</name>
    <cmt>Profile: Walking (1.0 m | 10 s | 100.0 m)
Step count: 0</cmt>
    <src>Samsung SM-G973W (Android 12)</src>
    <trkseg>
      <trkpt lat="44.074117" lon="9.795482">
        <ele>446</ele>
        <time>2023-03-18T12:31:59.583Z</time>
      </trkpt>
      <trkpt lat="44.074243" lon="9.795449">
        <ele>387.145966</ele>
        <time>2023-03-18T12:32:33.669Z</time>
      </trkpt>
      <trkpt lat="44.074283" lon="9.795394">
        <ele>387.986206</ele>
        <time>2023-03-18T12:33:05.001Z</time>
      </trkpt>
      <trkpt lat="44.07426" lon="9.795375">
        <ele>383.211639</ele>
        <time>2023-03-18T12:33:21.064Z</time>
      </trkpt>
      <trkpt lat="44.074309" lon="9.795243">
        <ele>380.37912</ele>
        <time>2023-03-18T12:33:36.017Z</time>
      </trkpt>
      <trkpt lat="44.074301" lon="9.795164">
        <ele>383.364868</ele>
        <time>2023-03-18T12:33:46.022Z</time>
      </trkpt>
      <trkpt lat="44.074233" lon="9.794815">
        <ele>382.075439</ele>
        <time>2023-03-18T12:34:00.600Z</time>
      </trkpt>
      <trkpt lat="44.074176" lon="9.794603">
        <ele>384.627899</ele>
        <time>2023-03-18T12:34:11.016Z</time>
      </trkpt>
      <trkpt lat="44.074149" lon="9.794505">
        <ele>385.230316</ele>
        <time>2023-03-18T12:34:24.076Z</time>
      </trkpt>
      <trkpt lat="44.074149" lon="9.794433">
        <ele>381.948608</ele>
        <time>2023-03-18T12:34:48.514Z</time>
      </trkpt>
      <trkpt lat="44.074252" lon="9.794075">
        <ele>379.59964</ele>
        <time>2023-03-18T12:35:19.031Z</time>
      </trkpt>
      <trkpt lat="44.074356" lon="9.793836">
        <ele>381.911621</ele>
        <time>2023-03-18T12:35:41.158Z</time>
      </trkpt>
      <trkpt lat="44.074463" lon="9.793609">
        <ele>377.625854</ele>
        <time>2023-03-18T12:35:53.990Z</time>
      </trkpt>
      <trkpt lat="44.074544" lon="9.793542">
        <ele>372.526276</ele>
        <time>2023-03-18T12:36:04.124Z</time>
      </trkpt>
      <trkpt lat="44.074657" lon="9.793391">
        <ele>379.203308</ele>
        <time>2023-03-18T12:36:14.312Z</time>
      </trkpt>
      <trkpt lat="44.074725" lon="9.793183">
        <ele>390.491089</ele>
        <time>2023-03-18T12:36:24.775Z</time>
      </trkpt>
      <trkpt lat="44.074759" lon="9.793006">
        <ele>378.119965</ele>
        <time>2023-03-18T12:36:36.792Z</time>
      </trkpt>
      <trkpt lat="44.074797" lon="9.792997">
        <ele>376.613861</ele>
        <time>2023-03-18T12:36:46.835Z</time>
      </trkpt>
      <trkpt lat="44.074866" lon="9.792909">
        <ele>375.234589</ele>
        <time>2023-03-18T12:36:57.618Z</time>
      </trkpt>
      <trkpt lat="44.074774" lon="9.792901">
        <ele>378.347198</ele>
        <time>2023-03-18T12:37:07.980Z</time>
      </trkpt>
      <trkpt lat="44.074872" lon="9.792914">
        <ele>381.021179</ele>
        <time>2023-03-18T12:37:44.057Z</time>
      </trkpt>
      <trkpt lat="44.075017" lon="9.792832">
        <ele>378.645782</ele>
        <time>2023-03-18T12:37:54.575Z</time>
      </trkpt>
      <trkpt lat="44.075103" lon="9.792731">
        <ele>375.551666</ele>
        <time>2023-03-18T12:38:06.138Z</time>
      </trkpt>
      <trkpt lat="44.07518" lon="9.792622">
        <ele>374.299225</ele>
        <time>2023-03-18T12:38:19.670Z</time>
      </trkpt>
      <trkpt lat="44.075246" lon="9.79249">
        <ele>370.565704</ele>
        <time>2023-03-18T12:39:07.775Z</time>
      </trkpt>
      <trkpt lat="44.075438" lon="9.792057">
        <ele>359.011047</ele>
        <time>2023-03-18T12:40:24.922Z</time>
      </trkpt>
      <trkpt lat="44.075524" lon="9.791736">
        <ele>366.145172</ele>
        <time>2023-03-18T12:40:40.275Z</time>
      </trkpt>
      <trkpt lat="44.075588" lon="9.791577">
        <ele>361.608398</ele>
        <time>2023-03-18T12:40:50.616Z</time>
      </trkpt>
      <trkpt lat="44.075736" lon="9.791423">
        <ele>366.205963</ele>
        <time>2023-03-18T12:41:02.642Z</time>
      </trkpt>
      <trkpt lat="44.075793" lon="9.791351">
        <ele>357.457397</ele>
        <time>2023-03-18T12:41:15.057Z</time>
      </trkpt>
      <trkpt lat="44.075882" lon="9.791187">
        <ele>359.655762</ele>
        <time>2023-03-18T12:41:27.558Z</time>
      </trkpt>
      <trkpt lat="44.075912" lon="9.790961">
        <ele>356.337067</ele>
        <time>2023-03-18T12:41:40.163Z</time>
      </trkpt>
      <trkpt lat="44.075912" lon="9.790906">
        <ele>358.125885</ele>
        <time>2023-03-18T12:42:15.156Z</time>
      </trkpt>
      <trkpt lat="44.075952" lon="9.790845">
        <ele>358.168152</ele>
        <time>2023-03-18T12:42:26.011Z</time>
      </trkpt>
      <trkpt lat="44.075999" lon="9.790752">
        <ele>360.894989</ele>
        <time>2023-03-18T12:42:40.672Z</time>
      </trkpt>
      <trkpt lat="44.076112" lon="9.790617">
        <ele>354.627502</ele>
        <time>2023-03-18T12:42:50.836Z</time>
      </trkpt>
      <trkpt lat="44.076262" lon="9.79055">
        <ele>356.897217</ele>
        <time>2023-03-18T12:43:04.501Z</time>
      </trkpt>
      <trkpt lat="44.076412" lon="9.790454">
        <ele>357.549866</ele>
        <time>2023-03-18T12:43:20.748Z</time>
      </trkpt>
      <trkpt lat="44.076552" lon="9.790409">
        <ele>344.452118</ele>
        <time>2023-03-18T12:46:54.136Z</time>
      </trkpt>
      <trkpt lat="44.077452" lon="9.788692">
        <ele>349.950684</ele>
        <time>2023-03-18T12:47:20.014Z</time>
      </trkpt>
      <trkpt lat="44.077202" lon="9.788494">
        <ele>348.38382</ele>
        <time>2023-03-18T12:47:34.998Z</time>
      </trkpt>
      <trkpt lat="44.077059" lon="9.788327">
        <ele>339.389526</ele>
        <time>2023-03-18T12:47:54.606Z</time>
      </trkpt>
      <trkpt lat="44.076968" lon="9.78824">
        <ele>360.6651</ele>
        <time>2023-03-18T12:48:04.748Z</time>
      </trkpt>
      <trkpt lat="44.076933" lon="9.788163">
        <ele>345.165527</ele>
        <time>2023-03-18T12:48:24.857Z</time>
      </trkpt>
      <trkpt lat="44.076789" lon="9.78798">
        <ele>357.853729</ele>
        <time>2023-03-18T12:48:35.492Z</time>
      </trkpt>
      <trkpt lat="44.076641" lon="9.78778">
        <ele>344.811462</ele>
        <time>2023-03-18T12:48:49.971Z</time>
      </trkpt>
      <trkpt lat="44.076514" lon="9.787568">
        <ele>344.388702</ele>
        <time>2023-03-18T12:49:03.589Z</time>
      </trkpt>
      <trkpt lat="44.076485" lon="9.787413">
        <ele>344.922424</ele>
        <time>2023-03-18T12:49:14.965Z</time>
      </trkpt>
      <trkpt lat="44.076412" lon="9.787273">
        <ele>348.0271</ele>
        <time>2023-03-18T12:49:25.371Z</time>
      </trkpt>
      <trkpt lat="44.076432" lon="9.787261">
        <ele>345.9133</ele>
        <time>2023-03-18T12:49:40.230Z</time>
      </trkpt>
      <trkpt lat="44.076382" lon="9.787112">
        <ele>346.536865</ele>
        <time>2023-03-18T12:49:50.647Z</time>
      </trkpt>
      <trkpt lat="44.076371" lon="9.787105">
        <ele>346.087677</ele>
        <time>2023-03-18T12:50:01.038Z</time>
      </trkpt>
      <trkpt lat="44.076378" lon="9.786969">
        <ele>348.212067</ele>
        <time>2023-03-18T12:50:51.007Z</time>
      </trkpt>
      <trkpt lat="44.076413" lon="9.786663">
        <ele>352.431763</ele>
        <time>2023-03-18T12:51:06.022Z</time>
      </trkpt>
      <trkpt lat="44.076494" lon="9.786633">
        <ele>354.476898</ele>
        <time>2023-03-18T12:51:19.711Z</time>
      </trkpt>
      <trkpt lat="44.0766" lon="9.786501">
        <ele>346.978119</ele>
        <time>2023-03-18T12:51:30.749Z</time>
      </trkpt>
      <trkpt lat="44.07662" lon="9.786399">
        <ele>346.978119</ele>
        <time>2023-03-18T12:51:41.005Z</time>
      </trkpt>
      <trkpt lat="44.076619" lon="9.786355">
        <ele>346.373047</ele>
        <time>2023-03-18T12:52:07.013Z</time>
      </trkpt>
      <trkpt lat="44.076735" lon="9.786169">
        <ele>346.25943</ele>
        <time>2023-03-18T12:52:20.085Z</time>
      </trkpt>
      <trkpt lat="44.076789" lon="9.785988">
        <ele>342.86145</ele>
        <time>2023-03-18T12:52:36.796Z</time>
      </trkpt>
      <trkpt lat="44.076792" lon="9.785951">
        <ele>340.784637</ele>
        <time>2023-03-18T12:52:47.000Z</time>
      </trkpt>
      <trkpt lat="44.076844" lon="9.785903">
        <ele>338.092163</ele>
        <time>2023-03-18T12:54:14.982Z</time>
      </trkpt>
      <trkpt lat="44.076853" lon="9.785863">
        <ele>339.112061</ele>
        <time>2023-03-18T12:54:24.983Z</time>
      </trkpt>
      <trkpt lat="44.076862" lon="9.785868">
        <ele>339.574463</ele>
        <time>2023-03-18T12:54:54.994Z</time>
      </trkpt>
      <trkpt lat="44.07687" lon="9.785891">
        <ele>338.905975</ele>
        <time>2023-03-18T12:56:10.984Z</time>
      </trkpt>
      <trkpt lat="44.076863" lon="9.78586">
        <ele>337.917755</ele>
        <time>2023-03-18T12:56:35.982Z</time>
      </trkpt>
      <trkpt lat="44.076876" lon="9.785887">
        <ele>339.283813</ele>
        <time>2023-03-18T12:57:58.997Z</time>
      </trkpt>
      <trkpt lat="44.077007" lon="9.785914">
        <ele>343.202301</ele>
        <time>2023-03-18T12:58:13.882Z</time>
      </trkpt>
      <trkpt lat="44.07708" lon="9.785876">
        <ele>335.959839</ele>
        <time>2023-03-18T12:58:26.624Z</time>
      </trkpt>
      <trkpt lat="44.077172" lon="9.785812">
        <ele>343.249878</ele>
        <time>2023-03-18T12:58:39.007Z</time>
      </trkpt>
      <trkpt lat="44.077385" lon="9.785869">
        <ele>355.636841</ele>
        <time>2023-03-18T12:59:12.978Z</time>
      </trkpt>
      <trkpt lat="44.077595" lon="9.785885">
        <ele>353.417358</ele>
        <time>2023-03-18T12:59:45.503Z</time>
      </trkpt>
      <trkpt lat="44.077787" lon="9.785799">
        <ele>352.183411</ele>
        <time>2023-03-18T12:59:56.000Z</time>
      </trkpt>
      <trkpt lat="44.077919" lon="9.785808">
        <ele>363.376068</ele>
        <time>2023-03-18T13:00:10.426Z</time>
      </trkpt>
      <trkpt lat="44.078011" lon="9.78584">
        <ele>354.677704</ele>
        <time>2023-03-18T13:00:20.952Z</time>
      </trkpt>
      <trkpt lat="44.078109" lon="9.785797">
        <ele>354.408203</ele>
        <time>2023-03-18T13:00:31.075Z</time>
      </trkpt>
      <trkpt lat="44.078235" lon="9.785736">
        <ele>352.812256</ele>
        <time>2023-03-18T13:00:45.962Z</time>
      </trkpt>
      <trkpt lat="44.078354" lon="9.785707">
        <ele>354.254944</ele>
        <time>2023-03-18T13:00:56.003Z</time>
      </trkpt>
      <trkpt lat="44.078453" lon="9.785674">
        <ele>376.143555</ele>
        <time>2023-03-18T13:01:06.356Z</time>
      </trkpt>
      <trkpt lat="44.078574" lon="9.785623">
        <ele>370.671387</ele>
        <time>2023-03-18T13:01:21.953Z</time>
      </trkpt>
      <trkpt lat="44.078753" lon="9.785706">
        <ele>364.361633</ele>
        <time>2023-03-18T13:02:06.563Z</time>
      </trkpt>
      <trkpt lat="44.078893" lon="9.78569">
        <ele>364.004944</ele>
        <time>2023-03-18T13:02:17.003Z</time>
      </trkpt>
      <trkpt lat="44.079048" lon="9.785709">
        <ele>366.615509</ele>
        <time>2023-03-18T13:02:30.032Z</time>
      </trkpt>
      <trkpt lat="44.079187" lon="9.785746">
        <ele>367.387054</ele>
        <time>2023-03-18T13:02:41.709Z</time>
      </trkpt>
      <trkpt lat="44.079236" lon="9.785718">
        <ele>370.536652</ele>
        <time>2023-03-18T13:03:08.941Z</time>
      </trkpt>
      <trkpt lat="44.079734" lon="9.785988">
        <ele>389.037842</ele>
        <time>2023-03-18T13:06:56.277Z</time>
      </trkpt>
      <trkpt lat="44.080477" lon="9.78539">
        <ele>393.130737</ele>
        <time>2023-03-18T13:07:57.020Z</time>
      </trkpt>
      <trkpt lat="44.080312" lon="9.78537">
        <ele>395.033173</ele>
        <time>2023-03-18T13:08:18.030Z</time>
      </trkpt>
      <trkpt lat="44.0802" lon="9.785326">
        <ele>404.878265</ele>
        <time>2023-03-18T13:10:03.470Z</time>
      </trkpt>
      <trkpt lat="44.079981" lon="9.784718">
        <ele>405.081726</ele>
        <time>2023-03-18T13:10:35.144Z</time>
      </trkpt>
      <trkpt lat="44.079953" lon="9.784707">
        <ele>403.834564</ele>
        <time>2023-03-18T13:10:54.622Z</time>
      </trkpt>
      <trkpt lat="44.079953" lon="9.784658">
        <ele>400.391693</ele>
        <time>2023-03-18T13:11:04.986Z</time>
      </trkpt>
      <trkpt lat="44.079956" lon="9.784542">
        <ele>406.593109</ele>
        <time>2023-03-18T13:11:29.695Z</time>
      </trkpt>
      <trkpt lat="44.079987" lon="9.784397">
        <ele>407.420135</ele>
        <time>2023-03-18T13:11:40.000Z</time>
      </trkpt>
      <trkpt lat="44.079998" lon="9.784288">
        <ele>406.698792</ele>
        <time>2023-03-18T13:11:57.797Z</time>
      </trkpt>
      <trkpt lat="44.08001" lon="9.784136">
        <ele>420.232513</ele>
        <time>2023-03-18T13:12:10.133Z</time>
      </trkpt>
      <trkpt lat="44.079994" lon="9.784014">
        <ele>413.037628</ele>
        <time>2023-03-18T13:12:20.151Z</time>
      </trkpt>
      <trkpt lat="44.080003" lon="9.783861">
        <ele>411.449615</ele>
        <time>2023-03-18T13:12:34.290Z</time>
      </trkpt>
      <trkpt lat="44.079979" lon="9.783651">
        <ele>411.285797</ele>
        <time>2023-03-18T13:12:50.555Z</time>
      </trkpt>
      <trkpt lat="44.079994" lon="9.78357">
        <ele>398.790466</ele>
        <time>2023-03-18T13:13:01.743Z</time>
      </trkpt>
      <trkpt lat="44.08007" lon="9.78332">
        <ele>417.03009</ele>
        <time>2023-03-18T13:13:15.691Z</time>
      </trkpt>
      <trkpt lat="44.080098" lon="9.783219">
        <ele>416.026031</ele>
        <time>2023-03-18T13:13:30.324Z</time>
      </trkpt>
      <trkpt lat="44.080162" lon="9.783061">
        <ele>428.095947</ele>
        <time>2023-03-18T13:13:40.859Z</time>
      </trkpt>
      <trkpt lat="44.080218" lon="9.782863">
        <ele>416.121155</ele>
        <time>2023-03-18T13:13:50.993Z</time>
      </trkpt>
      <trkpt lat="44.08032" lon="9.78275">
        <ele>426.573975</ele>
        <time>2023-03-18T13:14:07.076Z</time>
      </trkpt>
      <trkpt lat="44.080349" lon="9.782645">
        <ele>425.139221</ele>
        <time>2023-03-18T13:14:20.991Z</time>
      </trkpt>
      <trkpt lat="44.080381" lon="9.782604">
        <ele>432.529663</ele>
        <time>2023-03-18T13:14:35.907Z</time>
      </trkpt>
      <trkpt lat="44.08044" lon="9.782506">
        <ele>423.973999</ele>
        <time>2023-03-18T13:14:54.445Z</time>
      </trkpt>
      <trkpt lat="44.080523" lon="9.782371">
        <ele>428.701019</ele>
        <time>2023-03-18T13:15:04.994Z</time>
      </trkpt>
      <trkpt lat="44.080578" lon="9.782331">
        <ele>433.990845</ele>
        <time>2023-03-18T13:15:21.995Z</time>
      </trkpt>
      <trkpt lat="44.08066" lon="9.782282">
        <ele>435.446747</ele>
        <time>2023-03-18T13:15:32.551Z</time>
      </trkpt>
      <trkpt lat="44.080789" lon="9.782259">
        <ele>429.358948</ele>
        <time>2023-03-18T13:15:46.603Z</time>
      </trkpt>
      <trkpt lat="44.080835" lon="9.782223">
        <ele>431.147766</ele>
        <time>2023-03-18T13:15:56.973Z</time>
      </trkpt>
      <trkpt lat="44.080847" lon="9.782226">
        <ele>431.607513</ele>
        <time>2023-03-18T13:16:11.389Z</time>
      </trkpt>
      <trkpt lat="44.080891" lon="9.782155">
        <ele>429.82135</ele>
        <time>2023-03-18T13:16:21.994Z</time>
      </trkpt>
      <trkpt lat="44.081025" lon="9.782106">
        <ele>432.828247</ele>
        <time>2023-03-18T13:16:36.815Z</time>
      </trkpt>
      <trkpt lat="44.081073" lon="9.782148">
        <ele>428.26767</ele>
        <time>2023-03-18T13:16:46.989Z</time>
      </trkpt>
      <trkpt lat="44.081159" lon="9.782155">
        <ele>443.526825</ele>
        <time>2023-03-18T13:16:57.006Z</time>
      </trkpt>
      <trkpt lat="44.081473" lon="9.782197">
        <ele>450.769287</ele>
        <time>2023-03-18T13:19:15.457Z</time>
      </trkpt>
      <trkpt lat="44.082287" lon="9.781995">
        <ele>454.82254</ele>
        <time>2023-03-18T13:19:42.984Z</time>
      </trkpt>
      <trkpt lat="44.082385" lon="9.781965">
        <ele>452.00058</ele>
        <time>2023-03-18T13:23:47.012Z</time>
      </trkpt>
      <trkpt lat="44.082458" lon="9.781858">
        <ele>469.006256</ele>
        <time>2023-03-18T13:24:07.407Z</time>
      </trkpt>
      <trkpt lat="44.082588" lon="9.781673">
        <ele>451.281891</ele>
        <time>2023-03-18T13:24:22.141Z</time>
      </trkpt>
      <trkpt lat="44.08264" lon="9.781655">
        <ele>460.862762</ele>
        <time>2023-03-18T13:24:32.206Z</time>
      </trkpt>
      <trkpt lat="44.082695" lon="9.781497">
        <ele>458.939209</ele>
        <time>2023-03-18T13:25:39.037Z</time>
      </trkpt>
      <trkpt lat="44.082711" lon="9.781495">
        <ele>458.569275</ele>
        <time>2023-03-18T13:25:53.528Z</time>
      </trkpt>
      <trkpt lat="44.082821" lon="9.781297">
        <ele>458.949768</ele>
        <time>2023-03-18T13:26:03.955Z</time>
      </trkpt>
      <trkpt lat="44.082926" lon="9.781211">
        <ele>475.678009</ele>
        <time>2023-03-18T13:26:14.021Z</time>
      </trkpt>
      <trkpt lat="44.083071" lon="9.781123">
        <ele>474.296082</ele>
        <time>2023-03-18T13:26:29.350Z</time>
      </trkpt>
      <trkpt lat="44.083159" lon="9.781035">
        <ele>465.262146</ele>
        <time>2023-03-18T13:26:40.015Z</time>
      </trkpt>
      <trkpt lat="44.08327" lon="9.780947">
        <ele>473.151978</ele>
        <time>2023-03-18T13:26:56.885Z</time>
      </trkpt>
      <trkpt lat="44.0832" lon="9.780661">
        <ele>472.108276</ele>
        <time>2023-03-18T13:27:28.278Z</time>
      </trkpt>
      <trkpt lat="44.083181" lon="9.780369">
        <ele>473.47171</ele>
        <time>2023-03-18T13:27:47.101Z</time>
      </trkpt>
      <trkpt lat="44.08319" lon="9.780159">
        <ele>464.723145</ele>
        <time>2023-03-18T13:27:57.269Z</time>
      </trkpt>
      <trkpt lat="44.083239" lon="9.780058">
        <ele>467.843658</ele>
        <time>2023-03-18T13:28:07.323Z</time>
      </trkpt>
      <trkpt lat="44.08329" lon="9.779932">
        <ele>469.952179</ele>
        <time>2023-03-18T13:28:17.544Z</time>
      </trkpt>
      <trkpt lat="44.083351" lon="9.779801">
        <ele>473.122925</ele>
        <time>2023-03-18T13:28:27.868Z</time>
      </trkpt>
      <trkpt lat="44.083366" lon="9.779795">
        <ele>473.981659</ele>
        <time>2023-03-18T13:29:30.060Z</time>
      </trkpt>
      <trkpt lat="44.083438" lon="9.779723">
        <ele>474.467834</ele>
        <time>2023-03-18T13:29:40.991Z</time>
      </trkpt>
      <trkpt lat="44.083519" lon="9.77963">
        <ele>478.315002</ele>
        <time>2023-03-18T13:29:52.982Z</time>
      </trkpt>
      <trkpt lat="44.083526" lon="9.779601">
        <ele>469.706451</ele>
        <time>2023-03-18T13:30:08.005Z</time>
      </trkpt>
      <trkpt lat="44.08361" lon="9.779487">
        <ele>472.779419</ele>
        <time>2023-03-18T13:30:18.011Z</time>
      </trkpt>
      <trkpt lat="44.083786" lon="9.779463">
        <ele>487.050354</ele>
        <time>2023-03-18T13:30:28.487Z</time>
      </trkpt>
      <trkpt lat="44.083921" lon="9.779327">
        <ele>484.257477</ele>
        <time>2023-03-18T13:30:43.352Z</time>
      </trkpt>
      <trkpt lat="44.08399" lon="9.779266">
        <ele>471.865204</ele>
        <time>2023-03-18T13:30:53.824Z</time>
      </trkpt>
      <trkpt lat="44.08409" lon="9.77923">
        <ele>485.840179</ele>
        <time>2023-03-18T13:31:05.954Z</time>
      </trkpt>
      <trkpt lat="44.084192" lon="9.779159">
        <ele>485.9776</ele>
        <time>2023-03-18T13:31:18.549Z</time>
      </trkpt>
      <trkpt lat="44.084308" lon="9.779155">
        <ele>471.939178</ele>
        <time>2023-03-18T13:31:28.754Z</time>
      </trkpt>
      <trkpt lat="44.084428" lon="9.779177">
        <ele>482.185913</ele>
        <time>2023-03-18T13:31:43.305Z</time>
      </trkpt>
      <trkpt lat="44.084519" lon="9.779178">
        <ele>486.561523</ele>
        <time>2023-03-18T13:31:54.011Z</time>
      </trkpt>
      <trkpt lat="44.084724" lon="9.779078">
        <ele>483.390808</ele>
        <time>2023-03-18T13:32:19.019Z</time>
      </trkpt>
      <trkpt lat="44.08489" lon="9.778981">
        <ele>493.190979</ele>
        <time>2023-03-18T13:32:30.012Z</time>
      </trkpt>
      <trkpt lat="44.085079" lon="9.778924">
        <ele>488.981842</ele>
        <time>2023-03-18T13:32:43.713Z</time>
      </trkpt>
      <trkpt lat="44.085211" lon="9.778899">
        <ele>489.483887</ele>
        <time>2023-03-18T13:32:54.023Z</time>
      </trkpt>
      <trkpt lat="44.085376" lon="9.778855">
        <ele>481.94812</ele>
        <time>2023-03-18T13:33:06.711Z</time>
      </trkpt>
      <trkpt lat="44.085428" lon="9.778818">
        <ele>478.225159</ele>
        <time>2023-03-18T13:33:19.116Z</time>
      </trkpt>
      <trkpt lat="44.08552" lon="9.77864">
        <ele>482.751373</ele>
        <time>2023-03-18T13:33:30.076Z</time>
      </trkpt>
      <trkpt lat="44.085669" lon="9.778545">
        <ele>482.209717</ele>
        <time>2023-03-18T13:33:43.897Z</time>
      </trkpt>
      <trkpt lat="44.085722" lon="9.778463">
        <ele>482.714386</ele>
        <time>2023-03-18T13:33:53.939Z</time>
      </trkpt>
      <trkpt lat="44.08581" lon="9.778421">
        <ele>484.183472</ele>
        <time>2023-03-18T13:34:03.963Z</time>
      </trkpt>
      <trkpt lat="44.085913" lon="9.778333">
        <ele>484.511108</ele>
        <time>2023-03-18T13:34:14.020Z</time>
      </trkpt>
      <trkpt lat="44.085993" lon="9.778231">
        <ele>485.47821</ele>
        <time>2023-03-18T13:34:24.163Z</time>
      </trkpt>
      <trkpt lat="44.086045" lon="9.778209">
        <ele>499.677765</ele>
        <time>2023-03-18T13:37:16.063Z</time>
      </trkpt>
      <trkpt lat="44.08712" lon="9.777206">
        <ele>497.90744</ele>
        <time>2023-03-18T13:37:27.009Z</time>
      </trkpt>
      <trkpt lat="44.087196" lon="9.777194">
        <ele>506.605804</ele>
        <time>2023-03-18T13:39:18.261Z</time>
      </trkpt>
      <trkpt lat="44.087735" lon="9.77735">
        <ele>501.847076</ele>
        <time>2023-03-18T13:39:28.985Z</time>
      </trkpt>
      <trkpt lat="44.087818" lon="9.777395">
        <ele>503.382233</ele>
        <time>2023-03-18T13:42:04.137Z</time>
      </trkpt>
      <trkpt lat="44.08792" lon="9.777388">
        <ele>503.950317</ele>
        <time>2023-03-18T13:42:25.000Z</time>
      </trkpt>
      <trkpt lat="44.087996" lon="9.777368">
        <ele>514.070251</ele>
        <time>2023-03-18T13:42:55.625Z</time>
      </trkpt>
      <trkpt lat="44.088126" lon="9.777332">
        <ele>512.455811</ele>
        <time>2023-03-18T13:43:09.989Z</time>
      </trkpt>
      <trkpt lat="44.088051" lon="9.777447">
        <ele>505.712738</ele>
        <time>2023-03-18T13:43:23.089Z</time>
      </trkpt>
      <trkpt lat="44.087958" lon="9.777504">
        <ele>506.534485</ele>
        <time>2023-03-18T13:43:35.020Z</time>
      </trkpt>
      <trkpt lat="44.087984" lon="9.777481">
        <ele>504.531647</ele>
        <time>2023-03-18T13:44:55.682Z</time>
      </trkpt>
      <trkpt lat="44.088036" lon="9.777433">
        <ele>506.751129</ele>
        <time>2023-03-18T13:45:14.979Z</time>
      </trkpt>
      <trkpt lat="44.088181" lon="9.777446">
        <ele>508.28894</ele>
        <time>2023-03-18T13:45:25.650Z</time>
      </trkpt>
      <trkpt lat="44.088248" lon="9.777452">
        <ele>502.002991</ele>
        <time>2023-03-18T13:45:35.835Z</time>
      </trkpt>
      <trkpt lat="44.088208" lon="9.777426">
        <ele>505.189545</ele>
        <time>2023-03-18T13:47:10.995Z</time>
      </trkpt>
      <trkpt lat="44.088201" lon="9.777436">
        <ele>504.957031</ele>
        <time>2023-03-18T13:49:40.988Z</time>
      </trkpt>
      <trkpt lat="44.088216" lon="9.777433">
        <ele>505.794647</ele>
        <time>2023-03-18T13:52:21.988Z</time>
      </trkpt>
    </trkseg>
    <trkseg>
      <trkpt lat="44.088185" lon="9.77742">
        <ele>506.140778</ele>
        <time>2023-03-18T14:20:44.478Z</time>
      </trkpt>
      <trkpt lat="44.088197" lon="9.777427">
        <ele>506.090576</ele>
        <time>2023-03-18T14:21:00.044Z</time>
      </trkpt>
      <trkpt lat="44.088181" lon="9.777363">
        <ele>522.676147</ele>
        <time>2023-03-18T14:27:06.374Z</time>
      </trkpt>
      <trkpt lat="44.090176" lon="9.774481">
        <ele>516.305603</ele>
        <time>2023-03-18T14:27:16.937Z</time>
      </trkpt>
      <trkpt lat="44.090071" lon="9.774401">
        <ele>511.53894</ele>
        <time>2023-03-18T14:27:36.989Z</time>
      </trkpt>
      <trkpt lat="44.090116" lon="9.774266">
        <ele>516.477356</ele>
        <time>2023-03-18T14:27:46.989Z</time>
      </trkpt>
      <trkpt lat="44.090158" lon="9.774255">
        <ele>520.469849</ele>
        <time>2023-03-18T14:28:01.760Z</time>
      </trkpt>
      <trkpt lat="44.09037" lon="9.774178">
        <ele>519.629578</ele>
        <time>2023-03-18T14:28:14.952Z</time>
      </trkpt>
      <trkpt lat="44.090462" lon="9.774074">
        <ele>519.486877</ele>
        <time>2023-03-18T14:28:26.999Z</time>
      </trkpt>
      <trkpt lat="44.090487" lon="9.773897">
        <ele>527.450745</ele>
        <time>2023-03-18T14:28:52.072Z</time>
      </trkpt>
      <trkpt lat="44.090566" lon="9.773733">
        <ele>517.225098</ele>
        <time>2023-03-18T14:29:02.162Z</time>
      </trkpt>
      <trkpt lat="44.090615" lon="9.773528">
        <ele>520.387939</ele>
        <time>2023-03-18T14:29:17.992Z</time>
      </trkpt>
      <trkpt lat="44.0907" lon="9.773423">
        <ele>513.467773</ele>
        <time>2023-03-18T14:29:29.853Z</time>
      </trkpt>
      <trkpt lat="44.09079" lon="9.773268">
        <ele>517.024292</ele>
        <time>2023-03-18T14:29:42.811Z</time>
      </trkpt>
      <trkpt lat="44.090884" lon="9.773088">
        <ele>521.088135</ele>
        <time>2023-03-18T14:29:57.991Z</time>
      </trkpt>
      <trkpt lat="44.090991" lon="9.772906">
        <ele>513.679199</ele>
        <time>2023-03-18T14:30:12.998Z</time>
      </trkpt>
      <trkpt lat="44.091083" lon="9.772783">
        <ele>517.544861</ele>
        <time>2023-03-18T14:30:28.000Z</time>
      </trkpt>
      <trkpt lat="44.091096" lon="9.772794">
        <ele>511.240356</ele>
        <time>2023-03-18T14:30:38.003Z</time>
      </trkpt>
      <trkpt lat="44.09127" lon="9.772618">
        <ele>520.747253</ele>
        <time>2023-03-18T14:30:52.534Z</time>
      </trkpt>
      <trkpt lat="44.091357" lon="9.77247">
        <ele>514.730835</ele>
        <time>2023-03-18T14:31:02.656Z</time>
      </trkpt>
      <trkpt lat="44.091352" lon="9.772415">
        <ele>516.852539</ele>
        <time>2023-03-18T14:31:14.952Z</time>
      </trkpt>
      <trkpt lat="44.091383" lon="9.772348">
        <ele>512.75177</ele>
        <time>2023-03-18T14:31:27.981Z</time>
      </trkpt>
      <trkpt lat="44.091488" lon="9.772129">
        <ele>509.176758</ele>
        <time>2023-03-18T14:31:37.999Z</time>
      </trkpt>
      <trkpt lat="44.091637" lon="9.77172">
        <ele>516.794434</ele>
        <time>2023-03-18T14:32:08.002Z</time>
      </trkpt>
      <trkpt lat="44.091693" lon="9.771572">
        <ele>521.973267</ele>
        <time>2023-03-18T14:32:19.701Z</time>
      </trkpt>
      <trkpt lat="44.09168" lon="9.771397">
        <ele>522.731628</ele>
        <time>2023-03-18T14:32:34.042Z</time>
      </trkpt>
      <trkpt lat="44.091669" lon="9.771373">
        <ele>518.107666</ele>
        <time>2023-03-18T14:33:09.022Z</time>
      </trkpt>
      <trkpt lat="44.091543" lon="9.771201">
        <ele>518.009888</ele>
        <time>2023-03-18T14:33:19.552Z</time>
      </trkpt>
      <trkpt lat="44.091747" lon="9.770973">
        <ele>520.453979</ele>
        <time>2023-03-18T14:33:34.877Z</time>
      </trkpt>
      <trkpt lat="44.091792" lon="9.770803">
        <ele>515.536682</ele>
        <time>2023-03-18T14:33:46.305Z</time>
      </trkpt>
      <trkpt lat="44.091812" lon="9.770581">
        <ele>514.593384</ele>
        <time>2023-03-18T14:33:59.829Z</time>
      </trkpt>
      <trkpt lat="44.091834" lon="9.770414">
        <ele>517.893616</ele>
        <time>2023-03-18T14:34:22.632Z</time>
      </trkpt>
      <trkpt lat="44.091835" lon="9.770233">
        <ele>509.972076</ele>
        <time>2023-03-18T14:39:10.363Z</time>
      </trkpt>
      <trkpt lat="44.09288" lon="9.766695">
        <ele>510.312927</ele>
        <time>2023-03-18T14:39:20.991Z</time>
      </trkpt>
      <trkpt lat="44.092855" lon="9.766739">
        <ele>508.656219</ele>
        <time>2023-03-18T14:39:51.806Z</time>
      </trkpt>
      <trkpt lat="44.092789" lon="9.76676">
        <ele>502.745453</ele>
        <time>2023-03-18T14:40:10.991Z</time>
      </trkpt>
      <trkpt lat="44.092768" lon="9.766616">
        <ele>512.550964</ele>
        <time>2023-03-18T14:40:21.893Z</time>
      </trkpt>
      <trkpt lat="44.092746" lon="9.766356">
        <ele>506.375946</ele>
        <time>2023-03-18T14:40:39.106Z</time>
      </trkpt>
      <trkpt lat="44.092728" lon="9.766226">
        <ele>497.97879</ele>
        <time>2023-03-18T14:40:49.251Z</time>
      </trkpt>
      <trkpt lat="44.092774" lon="9.766067">
        <ele>502.980621</ele>
        <time>2023-03-18T14:41:02.020Z</time>
      </trkpt>
      <trkpt lat="44.092728" lon="9.765877">
        <ele>491.225128</ele>
        <time>2023-03-18T14:42:06.052Z</time>
      </trkpt>
      <trkpt lat="44.093044" lon="9.765116">
        <ele>498.084473</ele>
        <time>2023-03-18T14:42:16.478Z</time>
      </trkpt>
      <trkpt lat="44.093168" lon="9.765093">
        <ele>491.777374</ele>
        <time>2023-03-18T14:42:26.978Z</time>
      </trkpt>
      <trkpt lat="44.093259" lon="9.765011">
        <ele>490.469452</ele>
        <time>2023-03-18T14:43:04.929Z</time>
      </trkpt>
      <trkpt lat="44.09338" lon="9.764893">
        <ele>485.877167</ele>
        <time>2023-03-18T14:43:14.981Z</time>
      </trkpt>
      <trkpt lat="44.093545" lon="9.764739">
        <ele>484.719849</ele>
        <time>2023-03-18T14:43:27.041Z</time>
      </trkpt>
      <trkpt lat="44.093644" lon="9.76462">
        <ele>479.419464</ele>
        <time>2023-03-18T14:43:39.936Z</time>
      </trkpt>
      <trkpt lat="44.093682" lon="9.764444">
        <ele>487.523315</ele>
        <time>2023-03-18T14:43:49.969Z</time>
      </trkpt>
      <trkpt lat="44.093773" lon="9.764289">
        <ele>484.305023</ele>
        <time>2023-03-18T14:44:00.629Z</time>
      </trkpt>
      <trkpt lat="44.093858" lon="9.764178">
        <ele>491.97818</ele>
        <time>2023-03-18T14:44:10.703Z</time>
      </trkpt>
      <trkpt lat="44.093923" lon="9.764048">
        <ele>486.550964</ele>
        <time>2023-03-18T14:44:22.412Z</time>
      </trkpt>
      <trkpt lat="44.09393" lon="9.763806">
        <ele>479.276764</ele>
        <time>2023-03-18T14:44:49.968Z</time>
      </trkpt>
      <trkpt lat="44.094079" lon="9.763662">
        <ele>483.271912</ele>
        <time>2023-03-18T14:45:00.392Z</time>
      </trkpt>
      <trkpt lat="44.094095" lon="9.763506">
        <ele>477.92392</ele>
        <time>2023-03-18T14:45:11.039Z</time>
      </trkpt>
      <trkpt lat="44.094225" lon="9.763283">
        <ele>478.579224</ele>
        <time>2023-03-18T14:45:35.584Z</time>
      </trkpt>
      <trkpt lat="44.094287" lon="9.763082">
        <ele>478.949127</ele>
        <time>2023-03-18T14:45:47.435Z</time>
      </trkpt>
      <trkpt lat="44.094306" lon="9.762909">
        <ele>471.035522</ele>
        <time>2023-03-18T14:46:15.987Z</time>
      </trkpt>
      <trkpt lat="44.094332" lon="9.762824">
        <ele>465.388977</ele>
        <time>2023-03-18T14:47:09.861Z</time>
      </trkpt>
      <trkpt lat="44.094297" lon="9.762528">
        <ele>458.4953</ele>
        <time>2023-03-18T14:47:20.368Z</time>
      </trkpt>
      <trkpt lat="44.094284" lon="9.76249">
        <ele>446.295929</ele>
        <time>2023-03-18T14:47:30.706Z</time>
      </trkpt>
      <trkpt lat="44.094338" lon="9.762457">
        <ele>457.02356</ele>
        <time>2023-03-18T14:47:45.510Z</time>
      </trkpt>
      <trkpt lat="44.094387" lon="9.762268">
        <ele>454.664001</ele>
        <time>2023-03-18T14:47:58.389Z</time>
      </trkpt>
      <trkpt lat="44.094363" lon="9.762113">
        <ele>452.521118</ele>
        <time>2023-03-18T14:48:13.994Z</time>
      </trkpt>
      <trkpt lat="44.094382" lon="9.762018">
        <ele>441.428833</ele>
        <time>2023-03-18T14:48:43.490Z</time>
      </trkpt>
      <trkpt lat="44.094393" lon="9.761924">
        <ele>441.61908</ele>
        <time>2023-03-18T14:50:04.998Z</time>
      </trkpt>
      <trkpt lat="44.094531" lon="9.761733">
        <ele>446.184937</ele>
        <time>2023-03-18T14:50:30.525Z</time>
      </trkpt>
      <trkpt lat="44.094647" lon="9.76141">
        <ele>437.010956</ele>
        <time>2023-03-18T14:50:50.307Z</time>
      </trkpt>
      <trkpt lat="44.094663" lon="9.76136">
        <ele>438.651825</ele>
        <time>2023-03-18T14:51:38.765Z</time>
      </trkpt>
      <trkpt lat="44.094626" lon="9.76119">
        <ele>428.135559</ele>
        <time>2023-03-18T14:52:40.993Z</time>
      </trkpt>
      <trkpt lat="44.094614" lon="9.761099">
        <ele>427.91098</ele>
        <time>2023-03-18T14:52:55.991Z</time>
      </trkpt>
      <trkpt lat="44.094608" lon="9.761115">
        <ele>423.091461</ele>
        <time>2023-03-18T14:54:20.730Z</time>
      </trkpt>
      <trkpt lat="44.094557" lon="9.761044">
        <ele>416.53598</ele>
        <time>2023-03-18T14:54:30.751Z</time>
      </trkpt>
      <trkpt lat="44.094514" lon="9.760885">
        <ele>413.309753</ele>
        <time>2023-03-18T14:54:45.617Z</time>
      </trkpt>
      <trkpt lat="44.094492" lon="9.760817">
        <ele>411.23822</ele>
        <time>2023-03-18T14:54:55.991Z</time>
      </trkpt>
      <trkpt lat="44.094513" lon="9.760834">
        <ele>414.242493</ele>
        <time>2023-03-18T14:55:06.072Z</time>
      </trkpt>
      <trkpt lat="44.094497" lon="9.76081">
        <ele>414.802643</ele>
        <time>2023-03-18T14:55:38.487Z</time>
      </trkpt>
      <trkpt lat="44.094494" lon="9.760706">
        <ele>403.913849</ele>
        <time>2023-03-18T14:55:51.389Z</time>
      </trkpt>
      <trkpt lat="44.094563" lon="9.760532">
        <ele>414.105103</ele>
        <time>2023-03-18T14:56:01.741Z</time>
      </trkpt>
      <trkpt lat="44.094606" lon="9.760415">
        <ele>411.922577</ele>
        <time>2023-03-18T14:56:12.027Z</time>
      </trkpt>
      <trkpt lat="44.094598" lon="9.760358">
        <ele>406.400208</ele>
        <time>2023-03-18T14:56:25.644Z</time>
      </trkpt>
      <trkpt lat="44.094515" lon="9.760219">
        <ele>407.607727</ele>
        <time>2023-03-18T14:56:36.242Z</time>
      </trkpt>
      <trkpt lat="44.094439" lon="9.76014">
        <ele>406.926025</ele>
        <time>2023-03-18T14:56:58.821Z</time>
      </trkpt>
      <trkpt lat="44.094385" lon="9.760058">
        <ele>395.049011</ele>
        <time>2023-03-18T14:57:26.568Z</time>
      </trkpt>
      <trkpt lat="44.0945" lon="9.759826">
        <ele>396.734772</ele>
        <time>2023-03-18T14:57:44.537Z</time>
      </trkpt>
      <trkpt lat="44.094588" lon="9.759645">
        <ele>414.749817</ele>
        <time>2023-03-18T14:57:55.667Z</time>
      </trkpt>
      <trkpt lat="44.094698" lon="9.759516">
        <ele>404.635193</ele>
        <time>2023-03-18T14:58:09.750Z</time>
      </trkpt>
      <trkpt lat="44.094776" lon="9.759437">
        <ele>406.239044</ele>
        <time>2023-03-18T14:58:19.773Z</time>
      </trkpt>
      <trkpt lat="44.094798" lon="9.759473">
        <ele>402.471161</ele>
        <time>2023-03-18T14:59:02.662Z</time>
      </trkpt>
      <trkpt lat="44.094748" lon="9.759341">
        <ele>402.708954</ele>
        <time>2023-03-18T14:59:46.033Z</time>
      </trkpt>
      <trkpt lat="44.094714" lon="9.759369">
        <ele>401.467102</ele>
        <time>2023-03-18T15:00:13.043Z</time>
      </trkpt>
      <trkpt lat="44.094742" lon="9.759186">
        <ele>400.732544</ele>
        <time>2023-03-18T15:00:46.005Z</time>
      </trkpt>
      <trkpt lat="44.094774" lon="9.75895">
        <ele>393.339478</ele>
        <time>2023-03-18T15:00:59.815Z</time>
      </trkpt>
      <trkpt lat="44.094794" lon="9.758872">
        <ele>390.366913</ele>
        <time>2023-03-18T15:01:11.018Z</time>
      </trkpt>
      <trkpt lat="44.094815" lon="9.758812">
        <ele>388.13681</ele>
        <time>2023-03-18T15:02:18.490Z</time>
      </trkpt>
      <trkpt lat="44.094824" lon="9.758514">
        <ele>383.478485</ele>
        <time>2023-03-18T15:02:38.997Z</time>
      </trkpt>
      <trkpt lat="44.094854" lon="9.758334">
        <ele>376.989075</ele>
        <time>2023-03-18T15:03:09.998Z</time>
      </trkpt>
      <trkpt lat="44.095089" lon="9.758418">
        <ele>377.41449</ele>
        <time>2023-03-18T15:03:22.121Z</time>
      </trkpt>
      <trkpt lat="44.09522" lon="9.758448">
        <ele>373.931946</ele>
        <time>2023-03-18T15:03:32.293Z</time>
      </trkpt>
      <trkpt lat="44.095291" lon="9.75849">
        <ele>378.603516</ele>
        <time>2023-03-18T15:03:42.810Z</time>
      </trkpt>
      <trkpt lat="44.095449" lon="9.75838">
        <ele>376.687866</ele>
        <time>2023-03-18T15:03:57.676Z</time>
      </trkpt>
      <trkpt lat="44.095488" lon="9.758227">
        <ele>365.373627</ele>
        <time>2023-03-18T15:04:23.295Z</time>
      </trkpt>
      <trkpt lat="44.095601" lon="9.758062">
        <ele>370.248627</ele>
        <time>2023-03-18T15:04:36.151Z</time>
      </trkpt>
      <trkpt lat="44.095526" lon="9.758092">
        <ele>386.950439</ele>
        <time>2023-03-18T15:05:48.952Z</time>
      </trkpt>
      <trkpt lat="44.095638" lon="9.758105">
        <ele>394.951263</ele>
        <time>2023-03-18T15:05:59.009Z</time>
      </trkpt>
      <trkpt lat="44.095736" lon="9.758047">
        <ele>394.443939</ele>
        <time>2023-03-18T15:06:15.022Z</time>
      </trkpt>
      <trkpt lat="44.095721" lon="9.757908">
        <ele>396.087433</ele>
        <time>2023-03-18T15:08:36.946Z</time>
      </trkpt>
      <trkpt lat="44.095716" lon="9.757818">
        <ele>403.263855</ele>
        <time>2023-03-18T15:08:47.359Z</time>
      </trkpt>
      <trkpt lat="44.095756" lon="9.757627">
        <ele>402.320557</ele>
        <time>2023-03-18T15:08:57.575Z</time>
      </trkpt>
      <trkpt lat="44.095724" lon="9.757457">
        <ele>398.000427</ele>
        <time>2023-03-18T15:09:08.017Z</time>
      </trkpt>
      <trkpt lat="44.095723" lon="9.757415">
        <ele>385.003082</ele>
        <time>2023-03-18T15:09:23.487Z</time>
      </trkpt>
      <trkpt lat="44.095688" lon="9.757133">
        <ele>392.359192</ele>
        <time>2023-03-18T15:09:37.332Z</time>
      </trkpt>
      <trkpt lat="44.095672" lon="9.756936">
        <ele>393.305115</ele>
        <time>2023-03-18T15:09:47.809Z</time>
      </trkpt>
      <trkpt lat="44.09571" lon="9.756757">
        <ele>408.300018</ele>
        <time>2023-03-18T15:09:57.998Z</time>
      </trkpt>
      <trkpt lat="44.095778" lon="9.756581">
        <ele>394.827057</ele>
        <time>2023-03-18T15:10:10.126Z</time>
      </trkpt>
      <trkpt lat="44.095808" lon="9.756371">
        <ele>397.495758</ele>
        <time>2023-03-18T15:10:22.698Z</time>
      </trkpt>
      <trkpt lat="44.09584" lon="9.756191">
        <ele>392.293121</ele>
        <time>2023-03-18T15:10:33.062Z</time>
      </trkpt>
      <trkpt lat="44.095826" lon="9.756141">
        <ele>395.450653</ele>
        <time>2023-03-18T15:11:00.847Z</time>
      </trkpt>
      <trkpt lat="44.095825" lon="9.75611">
        <ele>394.618317</ele>
        <time>2023-03-18T15:11:14.890Z</time>
      </trkpt>
      <trkpt lat="44.095925" lon="9.756023">
        <ele>398.343933</ele>
        <time>2023-03-18T15:11:25.026Z</time>
      </trkpt>
      <trkpt lat="44.096002" lon="9.755846">
        <ele>388.654724</ele>
        <time>2023-03-18T15:11:35.850Z</time>
      </trkpt>
      <trkpt lat="44.096141" lon="9.755745">
        <ele>394.916901</ele>
        <time>2023-03-18T15:11:48.996Z</time>
      </trkpt>
      <trkpt lat="44.096113" lon="9.755695">
        <ele>406.849396</ele>
        <time>2023-03-18T15:11:59.018Z</time>
      </trkpt>
      <trkpt lat="44.096262" lon="9.755492">
        <ele>394.86142</ele>
        <time>2023-03-18T15:12:12.160Z</time>
      </trkpt>
      <trkpt lat="44.09633" lon="9.755361">
        <ele>391.907349</ele>
        <time>2023-03-18T15:12:22.198Z</time>
      </trkpt>
      <trkpt lat="44.096346" lon="9.755192">
        <ele>393.040894</ele>
        <time>2023-03-18T15:12:33.773Z</time>
      </trkpt>
      <trkpt lat="44.096353" lon="9.754982">
        <ele>388.308563</ele>
        <time>2023-03-18T15:12:44.021Z</time>
      </trkpt>
      <trkpt lat="44.09635" lon="9.754797">
        <ele>398.31485</ele>
        <time>2023-03-18T15:12:58.694Z</time>
      </trkpt>
      <trkpt lat="44.096357" lon="9.754586">
        <ele>391.072388</ele>
        <time>2023-03-18T15:13:14.022Z</time>
      </trkpt>
      <trkpt lat="44.096351" lon="9.754574">
        <ele>393.682953</ele>
        <time>2023-03-18T15:13:29.008Z</time>
      </trkpt>
      <trkpt lat="44.096327" lon="9.754425">
        <ele>400.655914</ele>
        <time>2023-03-18T15:13:43.995Z</time>
      </trkpt>
      <trkpt lat="44.096448" lon="9.754194">
        <ele>394.163849</ele>
        <time>2023-03-18T15:13:58.009Z</time>
      </trkpt>
      <trkpt lat="44.096416" lon="9.754">
        <ele>390.19516</ele>
        <time>2023-03-18T15:14:09.848Z</time>
      </trkpt>
      <trkpt lat="44.096374" lon="9.753792">
        <ele>390.950836</ele>
        <time>2023-03-18T15:14:20.021Z</time>
      </trkpt>
      <trkpt lat="44.096402" lon="9.753534">
        <ele>392.3909</ele>
        <time>2023-03-18T15:14:35.009Z</time>
      </trkpt>
      <trkpt lat="44.096469" lon="9.753344">
        <ele>385.967529</ele>
        <time>2023-03-18T15:14:45.953Z</time>
      </trkpt>
      <trkpt lat="44.096505" lon="9.753141">
        <ele>394.396362</ele>
        <time>2023-03-18T15:15:05.005Z</time>
      </trkpt>
      <trkpt lat="44.096537" lon="9.752919">
        <ele>389.05368</ele>
        <time>2023-03-18T15:15:19.521Z</time>
      </trkpt>
      <trkpt lat="44.096568" lon="9.752719">
        <ele>394.583984</ele>
        <time>2023-03-18T15:15:50.018Z</time>
      </trkpt>
      <trkpt lat="44.096599" lon="9.75245">
        <ele>387.304504</ele>
        <time>2023-03-18T15:16:00.806Z</time>
      </trkpt>
      <trkpt lat="44.096521" lon="9.752311">
        <ele>394.901031</ele>
        <time>2023-03-18T15:16:12.261Z</time>
      </trkpt>
      <trkpt lat="44.096511" lon="9.75202">
        <ele>390.750031</ele>
        <time>2023-03-18T15:16:24.784Z</time>
      </trkpt>
      <trkpt lat="44.096522" lon="9.751855">
        <ele>388.015289</ele>
        <time>2023-03-18T15:16:35.033Z</time>
      </trkpt>
      <trkpt lat="44.096558" lon="9.751582">
        <ele>380.667114</ele>
        <time>2023-03-18T15:16:49.023Z</time>
      </trkpt>
      <trkpt lat="44.096545" lon="9.751479">
        <ele>387.846161</ele>
        <time>2023-03-18T15:17:00.018Z</time>
      </trkpt>
      <trkpt lat="44.09658" lon="9.751297">
        <ele>382.160004</ele>
        <time>2023-03-18T15:17:15.029Z</time>
      </trkpt>
      <trkpt lat="44.09663" lon="9.751182">
        <ele>385.143127</ele>
        <time>2023-03-18T15:17:25.222Z</time>
      </trkpt>
      <trkpt lat="44.096652" lon="9.751022">
        <ele>375.551666</ele>
        <time>2023-03-18T15:17:35.922Z</time>
      </trkpt>
      <trkpt lat="44.096655" lon="9.750987">
        <ele>380.688263</ele>
        <time>2023-03-18T15:17:46.078Z</time>
      </trkpt>
      <trkpt lat="44.096674" lon="9.751028">
        <ele>375.258392</ele>
        <time>2023-03-18T15:19:10.990Z</time>
      </trkpt>
      <trkpt lat="44.096673" lon="9.750983">
        <ele>381.221985</ele>
        <time>2023-03-18T15:33:43.389Z</time>
      </trkpt>
      <trkpt lat="44.096657" lon="9.750868">
        <ele>372.851257</ele>
        <time>2023-03-18T15:35:34.208Z</time>
      </trkpt>
      <trkpt lat="44.096526" lon="9.750691">
        <ele>376.854309</ele>
        <time>2023-03-18T15:35:49.166Z</time>
      </trkpt>
      <trkpt lat="44.096441" lon="9.749295">
        <ele>365.310211</ele>
        <time>2023-03-18T15:51:34.566Z</time>
      </trkpt>
      <trkpt lat="44.096381" lon="9.748812">
        <ele>363.819977</ele>
        <time>2023-03-18T15:51:56.791Z</time>
      </trkpt>
      <trkpt lat="44.096359" lon="9.748726">
        <ele>361.481567</ele>
        <time>2023-03-18T15:55:12.486Z</time>
      </trkpt>
      <trkpt lat="44.09595" lon="9.747307">
        <ele>353.356567</ele>
        <time>2023-03-18T15:55:56.386Z</time>
      </trkpt>
      <trkpt lat="44.096012" lon="9.747184">
        <ele>351.546631</ele>
        <time>2023-03-18T15:56:07.973Z</time>
      </trkpt>
      <trkpt lat="44.096038" lon="9.747022">
        <ele>347.842163</ele>
        <time>2023-03-18T15:56:18.718Z</time>
      </trkpt>
      <trkpt lat="44.096057" lon="9.746967">
        <ele>349.424866</ele>
        <time>2023-03-18T15:56:33.092Z</time>
      </trkpt>
      <trkpt lat="44.096061" lon="9.746753">
        <ele>343.963287</ele>
        <time>2023-03-18T15:56:43.826Z</time>
      </trkpt>
      <trkpt lat="44.096076" lon="9.746482">
        <ele>348.732605</ele>
        <time>2023-03-18T15:56:58.429Z</time>
      </trkpt>
      <trkpt lat="44.096069" lon="9.746307">
        <ele>343.027924</ele>
        <time>2023-03-18T15:57:10.315Z</time>
      </trkpt>
      <trkpt lat="44.096069" lon="9.746248">
        <ele>341.463684</ele>
        <time>2023-03-18T15:57:49.005Z</time>
      </trkpt>
      <trkpt lat="44.096108" lon="9.745988">
        <ele>349.443359</ele>
        <time>2023-03-18T15:59:09.086Z</time>
      </trkpt>
      <trkpt lat="44.096203" lon="9.745821">
        <ele>338.636475</ele>
        <time>2023-03-18T15:59:20.002Z</time>
      </trkpt>
      <trkpt lat="44.096216" lon="9.745639">
        <ele>337.576904</ele>
        <time>2023-03-18T15:59:32.256Z</time>
      </trkpt>
      <trkpt lat="44.09624" lon="9.745442">
        <ele>341.698853</ele>
        <time>2023-03-18T15:59:44.694Z</time>
      </trkpt>
      <trkpt lat="44.096167" lon="9.745308">
        <ele>339.426514</ele>
        <time>2023-03-18T15:59:59.988Z</time>
      </trkpt>
      <trkpt lat="44.096134" lon="9.745219">
        <ele>338.218994</ele>
        <time>2023-03-18T16:00:09.994Z</time>
      </trkpt>
      <trkpt lat="44.096144" lon="9.745175">
        <ele>338.588898</ele>
        <time>2023-03-18T16:00:29.988Z</time>
      </trkpt>
      <trkpt lat="44.096156" lon="9.745163">
        <ele>339.204559</ele>
        <time>2023-03-18T16:00:40.005Z</time>
      </trkpt>
      <trkpt lat="44.096141" lon="9.74518">
        <ele>339.027527</ele>
        <time>2023-03-18T16:01:05.041Z</time>
      </trkpt>
      <trkpt lat="44.096136" lon="9.745163">
        <ele>339.561249</ele>
        <time>2023-03-18T16:01:33.976Z</time>
      </trkpt>
      <trkpt lat="44.096152" lon="9.745179">
        <ele>338.636475</ele>
        <time>2023-03-18T16:02:09.015Z</time>
      </trkpt>
      <trkpt lat="44.096133" lon="9.745185">
        <ele>342.480988</ele>
        <time>2023-03-18T16:03:27.540Z</time>
      </trkpt>
      <trkpt lat="44.096033" lon="9.745141">
        <ele>334.009857</ele>
        <time>2023-03-18T16:04:15.500Z</time>
      </trkpt>
      <trkpt lat="44.096011" lon="9.745141">
        <ele>333.396851</ele>
        <time>2023-03-18T16:04:30.708Z</time>
      </trkpt>
      <trkpt lat="44.095968" lon="9.745002">
        <ele>329.591949</ele>
        <time>2023-03-18T16:04:54.301Z</time>
      </trkpt>
      <trkpt lat="44.095944" lon="9.744862">
        <ele>321.303162</ele>
        <time>2023-03-18T16:05:13.198Z</time>
      </trkpt>
      <trkpt lat="44.095849" lon="9.744757">
        <ele>318.742798</ele>
        <time>2023-03-18T16:05:26.467Z</time>
      </trkpt>
      <trkpt lat="44.095806" lon="9.744699">
        <ele>318.56839</ele>
        <time>2023-03-18T16:06:06.675Z</time>
      </trkpt>
      <trkpt lat="44.095732" lon="9.744637">
        <ele>318.544617</ele>
        <time>2023-03-18T16:06:16.987Z</time>
      </trkpt>
      <trkpt lat="44.095685" lon="9.744567">
        <ele>307.980804</ele>
        <time>2023-03-18T16:06:29.555Z</time>
      </trkpt>
      <trkpt lat="44.09566" lon="9.744459">
        <ele>312.805603</ele>
        <time>2023-03-18T16:06:39.838Z</time>
      </trkpt>
      <trkpt lat="44.095736" lon="9.744424">
        <ele>301.6922</ele>
        <time>2023-03-18T16:07:08.819Z</time>
      </trkpt>
      <trkpt lat="44.095777" lon="9.744377">
        <ele>306.065155</ele>
        <time>2023-03-18T16:07:21.044Z</time>
      </trkpt>
      <trkpt lat="44.095695" lon="9.744231">
        <ele>301.213928</ele>
        <time>2023-03-18T16:08:05.138Z</time>
      </trkpt>
      <trkpt lat="44.095644" lon="9.74409">
        <ele>298.804199</ele>
        <time>2023-03-18T16:08:15.817Z</time>
      </trkpt>
      <trkpt lat="44.095632" lon="9.74396">
        <ele>293.609467</ele>
        <time>2023-03-18T16:09:05.267Z</time>
      </trkpt>
      <trkpt lat="44.095542" lon="9.743726">
        <ele>293.030823</ele>
        <time>2023-03-18T16:09:15.458Z</time>
      </trkpt>
      <trkpt lat="44.095509" lon="9.743639">
        <ele>292.740173</ele>
        <time>2023-03-18T16:09:35.988Z</time>
      </trkpt>
      <trkpt lat="44.095438" lon="9.743421">
        <ele>288.343414</ele>
        <time>2023-03-18T16:09:46.011Z</time>
      </trkpt>
      <trkpt lat="44.09541" lon="9.743466">
        <ele>280.7099</ele>
        <time>2023-03-18T16:10:01.003Z</time>
      </trkpt>
      <trkpt lat="44.095268" lon="9.743416">
        <ele>290.898499</ele>
        <time>2023-03-18T16:10:11.005Z</time>
      </trkpt>
      <trkpt lat="44.095214" lon="9.743369">
        <ele>291.292206</ele>
        <time>2023-03-18T16:10:23.050Z</time>
      </trkpt>
      <trkpt lat="44.095205" lon="9.743321">
        <ele>286.160919</ele>
        <time>2023-03-18T16:10:35.992Z</time>
      </trkpt>
      <trkpt lat="44.095094" lon="9.743141">
        <ele>276.979004</ele>
        <time>2023-03-18T16:11:41.373Z</time>
      </trkpt>
      <trkpt lat="44.095097" lon="9.743058">
        <ele>275.232452</ele>
        <time>2023-03-18T16:11:51.383Z</time>
      </trkpt>
      <trkpt lat="44.095091" lon="9.742972">
        <ele>272.098724</ele>
        <time>2023-03-18T16:12:01.651Z</time>
      </trkpt>
      <trkpt lat="44.095057" lon="9.742851">
        <ele>266.01358</ele>
        <time>2023-03-18T16:12:11.748Z</time>
      </trkpt>
      <trkpt lat="44.095029" lon="9.742849">
        <ele>265.014801</ele>
        <time>2023-03-18T16:12:25.689Z</time>
      </trkpt>
      <trkpt lat="44.094976" lon="9.742754">
        <ele>259.891418</ele>
        <time>2023-03-18T16:12:36.770Z</time>
      </trkpt>
      <trkpt lat="44.094923" lon="9.742696">
        <ele>261.690796</ele>
        <time>2023-03-18T16:12:46.911Z</time>
      </trkpt>
      <trkpt lat="44.094806" lon="9.742614">
        <ele>257.505432</ele>
        <time>2023-03-18T16:12:56.977Z</time>
      </trkpt>
      <trkpt lat="44.094791" lon="9.742658">
        <ele>260.51236</ele>
        <time>2023-03-18T16:13:07.050Z</time>
      </trkpt>
      <trkpt lat="44.094827" lon="9.742662">
        <ele>259.510925</ele>
        <time>2023-03-18T16:13:31.815Z</time>
      </trkpt>
      <trkpt lat="44.094856" lon="9.742663">
        <ele>264.475769</ele>
        <time>2023-03-18T16:14:08.992Z</time>
      </trkpt>
      <trkpt lat="44.094735" lon="9.742745">
        <ele>255.497314</ele>
        <time>2023-03-18T16:14:22.310Z</time>
      </trkpt>
      <trkpt lat="44.09464" lon="9.742903">
        <ele>256.41153</ele>
        <time>2023-03-18T16:14:32.977Z</time>
      </trkpt>
      <trkpt lat="44.09459" lon="9.743157">
        <ele>252.334518</ele>
        <time>2023-03-18T16:14:47.390Z</time>
      </trkpt>
      <trkpt lat="44.094551" lon="9.743158">
        <ele>248.072525</ele>
        <time>2023-03-18T16:14:58.001Z</time>
      </trkpt>
      <trkpt lat="44.094526" lon="9.743105">
        <ele>246.616638</ele>
        <time>2023-03-18T16:15:28.862Z</time>
      </trkpt>
      <trkpt lat="44.094397" lon="9.742935">
        <ele>244.547729</ele>
        <time>2023-03-18T16:15:38.987Z</time>
      </trkpt>
      <trkpt lat="44.094417" lon="9.742959">
        <ele>239.440216</ele>
        <time>2023-03-18T16:15:57.280Z</time>
      </trkpt>
      <trkpt lat="44.094377" lon="9.743018">
        <ele>235.511154</ele>
        <time>2023-03-18T16:16:18.179Z</time>
      </trkpt>
      <trkpt lat="44.094383" lon="9.742819">
        <ele>232.314011</ele>
        <time>2023-03-18T16:17:33.309Z</time>
      </trkpt>
      <trkpt lat="44.094481" lon="9.742672">
        <ele>231.262375</ele>
        <time>2023-03-18T16:17:43.674Z</time>
      </trkpt>
      <trkpt lat="44.094588" lon="9.742644">
        <ele>226.749374</ele>
        <time>2023-03-18T16:17:53.919Z</time>
      </trkpt>
      <trkpt lat="44.094593" lon="9.742599">
        <ele>232.195099</ele>
        <time>2023-03-18T16:18:03.991Z</time>
      </trkpt>
      <trkpt lat="44.094772" lon="9.742451">
        <ele>229.756287</ele>
        <time>2023-03-18T16:18:18.553Z</time>
      </trkpt>
      <trkpt lat="44.094902" lon="9.742444">
        <ele>228.963608</ele>
        <time>2023-03-18T16:18:41.977Z</time>
      </trkpt>
      <trkpt lat="44.095066" lon="9.742319">
        <ele>225.227432</ele>
        <time>2023-03-18T16:18:54.044Z</time>
      </trkpt>
      <trkpt lat="44.095203" lon="9.742302">
        <ele>243.353424</ele>
        <time>2023-03-18T16:19:08.915Z</time>
      </trkpt>
      <trkpt lat="44.095358" lon="9.742352">
        <ele>236.140015</ele>
        <time>2023-03-18T16:19:19.549Z</time>
      </trkpt>
      <trkpt lat="44.095493" lon="9.742475">
        <ele>240.877609</ele>
        <time>2023-03-18T16:19:33.963Z</time>
      </trkpt>
      <trkpt lat="44.095566" lon="9.742516">
        <ele>234.348557</ele>
        <time>2023-03-18T16:19:44.427Z</time>
      </trkpt>
      <trkpt lat="44.0957" lon="9.742544">
        <ele>227.338608</ele>
        <time>2023-03-18T16:19:57.795Z</time>
      </trkpt>
      <trkpt lat="44.095836" lon="9.742578">
        <ele>217.321747</ele>
        <time>2023-03-18T16:20:09.565Z</time>
      </trkpt>
      <trkpt lat="44.096029" lon="9.742649">
        <ele>232.990433</ele>
        <time>2023-03-18T16:20:24.460Z</time>
      </trkpt>
      <trkpt lat="44.096054" lon="9.742658">
        <ele>221.914017</ele>
        <time>2023-03-18T16:20:34.983Z</time>
      </trkpt>
      <trkpt lat="44.096093" lon="9.74275">
        <ele>216.312393</ele>
        <time>2023-03-18T16:20:49.993Z</time>
      </trkpt>
      <trkpt lat="44.096149" lon="9.742824">
        <ele>218.032516</ele>
        <time>2023-03-18T16:21:19.123Z</time>
      </trkpt>
      <trkpt lat="44.096295" lon="9.742943">
        <ele>217.118286</ele>
        <time>2023-03-18T16:21:29.481Z</time>
      </trkpt>
      <trkpt lat="44.096423" lon="9.743019">
        <ele>224.292068</ele>
        <time>2023-03-18T16:21:39.629Z</time>
      </trkpt>
      <trkpt lat="44.096541" lon="9.743088">
        <ele>211.669922</ele>
        <time>2023-03-18T16:21:49.992Z</time>
      </trkpt>
      <trkpt lat="44.096675" lon="9.743092">
        <ele>236.945908</ele>
        <time>2023-03-18T16:21:59.995Z</time>
      </trkpt>
      <trkpt lat="44.096855" lon="9.742994">
        <ele>219.588821</ele>
        <time>2023-03-18T16:22:16.045Z</time>
      </trkpt>
      <trkpt lat="44.096995" lon="9.742873">
        <ele>220.207108</ele>
        <time>2023-03-18T16:22:29.969Z</time>
      </trkpt>
      <trkpt lat="44.097011" lon="9.742759">
        <ele>209.463623</ele>
        <time>2023-03-18T16:22:40.321Z</time>
      </trkpt>
      <trkpt lat="44.097039" lon="9.742711">
        <ele>221.718491</ele>
        <time>2023-03-18T16:22:50.439Z</time>
      </trkpt>
      <trkpt lat="44.097174" lon="9.742646">
        <ele>216.626831</ele>
        <time>2023-03-18T16:23:10.659Z</time>
      </trkpt>
      <trkpt lat="44.097184" lon="9.742514">
        <ele>208.250824</ele>
        <time>2023-03-18T16:23:45.981Z</time>
      </trkpt>
      <trkpt lat="44.097231" lon="9.742451">
        <ele>203.130096</ele>
        <time>2023-03-18T16:24:35.968Z</time>
      </trkpt>
      <trkpt lat="44.097307" lon="9.742419">
        <ele>201.565872</ele>
        <time>2023-03-18T16:24:55.993Z</time>
      </trkpt>
      <trkpt lat="44.097277" lon="9.742312">
        <ele>200.493103</ele>
        <time>2023-03-18T16:25:13.753Z</time>
      </trkpt>
      <trkpt lat="44.097294" lon="9.74213">
        <ele>197.718719</ele>
        <time>2023-03-18T16:25:25.979Z</time>
      </trkpt>
      <trkpt lat="44.097298" lon="9.742102">
        <ele>196.455704</ele>
        <time>2023-03-18T16:25:45.984Z</time>
      </trkpt>
      <trkpt lat="44.097309" lon="9.742048">
        <ele>193.75531</ele>
        <time>2023-03-18T16:25:57.258Z</time>
      </trkpt>
      <trkpt lat="44.097369" lon="9.741944">
        <ele>187.065063</ele>
        <time>2023-03-18T16:27:06.140Z</time>
      </trkpt>
      <trkpt lat="44.097425" lon="9.741846">
        <ele>184.166489</ele>
        <time>2023-03-18T16:27:17.002Z</time>
      </trkpt>
      <trkpt lat="44.097423" lon="9.741752">
        <ele>186.393921</ele>
        <time>2023-03-18T16:27:27.003Z</time>
      </trkpt>
      <trkpt lat="44.097498" lon="9.741654">
        <ele>179.693115</ele>
        <time>2023-03-18T16:28:06.691Z</time>
      </trkpt>
      <trkpt lat="44.097569" lon="9.741562">
        <ele>174.236832</ele>
        <time>2023-03-18T16:28:16.984Z</time>
      </trkpt>
      <trkpt lat="44.097588" lon="9.741557">
        <ele>175.045364</ele>
        <time>2023-03-18T16:28:27.045Z</time>
      </trkpt>
      <trkpt lat="44.097628" lon="9.74158">
        <ele>172.521988</ele>
        <time>2023-03-18T16:29:26.975Z</time>
      </trkpt>
      <trkpt lat="44.097667" lon="9.74153">
        <ele>172.619751</ele>
        <time>2023-03-18T16:29:37.606Z</time>
      </trkpt>
      <trkpt lat="44.097704" lon="9.74143">
        <ele>167.105331</ele>
        <time>2023-03-18T16:29:47.988Z</time>
      </trkpt>
      <trkpt lat="44.09777" lon="9.741368">
        <ele>163.456345</ele>
        <time>2023-03-18T16:30:42.365Z</time>
      </trkpt>
      <trkpt lat="44.097801" lon="9.741307">
        <ele>154.765915</ele>
        <time>2023-03-18T16:30:52.680Z</time>
      </trkpt>
      <trkpt lat="44.097791" lon="9.741256">
        <ele>157.146591</ele>
        <time>2023-03-18T16:31:03.005Z</time>
      </trkpt>
      <trkpt lat="44.097842" lon="9.741185">
        <ele>152.224045</ele>
        <time>2023-03-18T16:33:23.072Z</time>
      </trkpt>
      <trkpt lat="44.097918" lon="9.741143">
        <ele>148.030746</ele>
        <time>2023-03-18T16:34:07.180Z</time>
      </trkpt>
      <trkpt lat="44.097962" lon="9.741141">
        <ele>147.552505</ele>
        <time>2023-03-18T16:34:18.456Z</time>
      </trkpt>
      <trkpt lat="44.097999" lon="9.74109">
        <ele>143.330154</ele>
        <time>2023-03-18T16:34:53.987Z</time>
      </trkpt>
      <trkpt lat="44.098016" lon="9.741086">
        <ele>146.934204</ele>
        <time>2023-03-18T16:35:08.969Z</time>
      </trkpt>
      <trkpt lat="44.098097" lon="9.741013">
        <ele>142.651077</ele>
        <time>2023-03-18T16:35:53.973Z</time>
      </trkpt>
      <trkpt lat="44.09811" lon="9.740958">
        <ele>129.910034</ele>
        <time>2023-03-18T16:36:05.024Z</time>
      </trkpt>
      <trkpt lat="44.098206" lon="9.740847">
        <ele>133.104553</ele>
        <time>2023-03-18T16:37:30.704Z</time>
      </trkpt>
      <trkpt lat="44.098187" lon="9.740704">
        <ele>137.052109</ele>
        <time>2023-03-18T16:37:44.673Z</time>
      </trkpt>
      <trkpt lat="44.098113" lon="9.740564">
        <ele>136.724457</ele>
        <time>2023-03-18T16:37:55.004Z</time>
      </trkpt>
      <trkpt lat="44.098009" lon="9.74053">
        <ele>127.759232</ele>
        <time>2023-03-18T16:38:05.897Z</time>
      </trkpt>
      <trkpt lat="44.098056" lon="9.740485">
        <ele>105.746445</ele>
        <time>2023-03-18T16:38:41.041Z</time>
      </trkpt>
      <trkpt lat="44.098307" lon="9.740436">
        <ele>114.78566</ele>
        <time>2023-03-18T16:39:36.590Z</time>
      </trkpt>
      <trkpt lat="44.098431" lon="9.740335">
        <ele>102.21637</ele>
        <time>2023-03-18T16:39:51.000Z</time>
      </trkpt>
      <trkpt lat="44.098407" lon="9.740284">
        <ele>113.369408</ele>
        <time>2023-03-18T16:40:05.974Z</time>
      </trkpt>
      <trkpt lat="44.09845" lon="9.740384">
        <ele>110.198677</ele>
        <time>2023-03-18T16:40:46.830Z</time>
      </trkpt>
      <trkpt lat="44.098413" lon="9.74046">
        <ele>112.497452</ele>
        <time>2023-03-18T16:41:38.012Z</time>
      </trkpt>
      <trkpt lat="44.09843" lon="9.740462">
        <ele>111.649284</ele>
        <time>2023-03-18T16:42:47.037Z</time>
      </trkpt>
      <trkpt lat="44.098439" lon="9.740468">
        <ele>111.118187</ele>
        <time>2023-03-18T16:43:07.972Z</time>
      </trkpt>
      <trkpt lat="44.098457" lon="9.740474">
        <ele>111.876518</ele>
        <time>2023-03-18T16:43:17.984Z</time>
      </trkpt>
      <trkpt lat="44.098459" lon="9.740405">
        <ele>103.233643</ele>
        <time>2023-03-18T16:45:27.628Z</time>
      </trkpt>
      <trkpt lat="44.09844" lon="9.74027">
        <ele>110.151115</ele>
        <time>2023-03-18T16:45:45.347Z</time>
      </trkpt>
      <trkpt lat="44.098503" lon="9.740163">
        <ele>100.607224</ele>
        <time>2023-03-18T16:45:57.908Z</time>
      </trkpt>
      <trkpt lat="44.098548" lon="9.740052">
        <ele>100.498886</ele>
        <time>2023-03-18T16:46:08.708Z</time>
      </trkpt>
      <trkpt lat="44.098488" lon="9.740044">
        <ele>94.049095</ele>
        <time>2023-03-18T16:46:48.364Z</time>
      </trkpt>
      <trkpt lat="44.098536" lon="9.73996">
        <ele>96.073082</ele>
        <time>2023-03-18T16:47:01.366Z</time>
      </trkpt>
      <trkpt lat="44.098548" lon="9.739888">
        <ele>91.562721</ele>
        <time>2023-03-18T16:47:28.991Z</time>
      </trkpt>
      <trkpt lat="44.098583" lon="9.739875">
        <ele>92.46109</ele>
        <time>2023-03-18T16:47:48.637Z</time>
      </trkpt>
      <trkpt lat="44.098561" lon="9.739862">
        <ele>95.333244</ele>
        <time>2023-03-18T16:47:58.853Z</time>
      </trkpt>
      <trkpt lat="44.098578" lon="9.739745">
        <ele>86.259674</ele>
        <time>2023-03-18T16:48:10.779Z</time>
      </trkpt>
      <trkpt lat="44.098616" lon="9.739633">
        <ele>67.089973</ele>
        <time>2023-03-18T16:48:23.823Z</time>
      </trkpt>
      <trkpt lat="44.098615" lon="9.739543">
        <ele>78.734474</ele>
        <time>2023-03-18T16:48:38.298Z</time>
      </trkpt>
      <trkpt lat="44.098614" lon="9.739356">
        <ele>67.105827</ele>
        <time>2023-03-18T16:48:57.319Z</time>
      </trkpt>
      <trkpt lat="44.098705" lon="9.739182">
        <ele>68.426964</ele>
        <time>2023-03-18T16:49:23.973Z</time>
      </trkpt>
      <trkpt lat="44.098709" lon="9.739099">
        <ele>64.257462</ele>
        <time>2023-03-18T16:50:07.914Z</time>
      </trkpt>
      <trkpt lat="44.098714" lon="9.739017">
        <ele>52.628811</ele>
        <time>2023-03-18T16:50:34.401Z</time>
      </trkpt>
      <trkpt lat="44.098686" lon="9.738946">
        <ele>62.378803</ele>
        <time>2023-03-18T16:50:44.980Z</time>
      </trkpt>
      <trkpt lat="44.098668" lon="9.738875">
        <ele>55.688564</ele>
        <time>2023-03-18T16:50:54.993Z</time>
      </trkpt>
      <trkpt lat="44.098677" lon="9.738882">
        <ele>54.163971</ele>
        <time>2023-03-18T16:51:19.142Z</time>
      </trkpt>
      <trkpt lat="44.098711" lon="9.738871">
        <ele>56.280434</ele>
        <time>2023-03-18T16:51:30.022Z</time>
      </trkpt>
      <trkpt lat="44.098738" lon="9.7388">
        <ele>57.30035</ele>
        <time>2023-03-18T16:51:49.930Z</time>
      </trkpt>
      <trkpt lat="44.098759" lon="9.738823">
        <ele>56.029419</ele>
        <time>2023-03-18T16:52:10.999Z</time>
      </trkpt>
      <trkpt lat="44.098739" lon="9.738846">
        <ele>54.874744</ele>
        <time>2023-03-18T16:53:05.985Z</time>
      </trkpt>
      <trkpt lat="44.098739" lon="9.73883">
        <ele>55.123119</ele>
        <time>2023-03-18T16:53:15.989Z</time>
      </trkpt>
      <trkpt lat="44.098761" lon="9.738807">
        <ele>54.753201</ele>
        <time>2023-03-18T16:53:45.984Z</time>
      </trkpt>
      <trkpt lat="44.098729" lon="9.738849">
        <ele>55.186531</ele>
        <time>2023-03-18T16:54:00.976Z</time>
      </trkpt>
      <trkpt lat="44.098781" lon="9.738982">
        <ele>66.392418</ele>
        <time>2023-03-18T16:54:26.147Z</time>
      </trkpt>
      <trkpt lat="44.098925" lon="9.739104">
        <ele>55.823322</ele>
        <time>2023-03-18T16:54:36.989Z</time>
      </trkpt>
      <trkpt lat="44.099027" lon="9.739301">
        <ele>52.845478</ele>
        <time>2023-03-18T16:54:51.988Z</time>
      </trkpt>
      <trkpt lat="44.099141" lon="9.73928">
        <ele>53.609097</ele>
        <time>2023-03-18T16:55:01.998Z</time>
      </trkpt>
      <trkpt lat="44.099156" lon="9.739213">
        <ele>43.219673</ele>
        <time>2023-03-18T16:55:23.470Z</time>
      </trkpt>
      <trkpt lat="44.099207" lon="9.739236">
        <ele>41.806057</ele>
        <time>2023-03-18T16:55:41.951Z</time>
      </trkpt>
      <trkpt lat="44.099212" lon="9.739071">
        <ele>40.947319</ele>
        <time>2023-03-18T16:55:56.993Z</time>
      </trkpt>
      <trkpt lat="44.099181" lon="9.739041">
        <ele>35.076187</ele>
        <time>2023-03-18T16:56:09.744Z</time>
      </trkpt>
      <trkpt lat="44.099182" lon="9.738972">
        <ele>28.755867</ele>
        <time>2023-03-18T16:56:38.121Z</time>
      </trkpt>
      <trkpt lat="44.099278" lon="9.738836">
        <ele>23.883514</ele>
        <time>2023-03-18T16:56:57.494Z</time>
      </trkpt>
      <trkpt lat="44.099381" lon="9.738786">
        <ele>25.352617</ele>
        <time>2023-03-18T16:57:09.034Z</time>
      </trkpt>
      <trkpt lat="44.099419" lon="9.738732">
        <ele>18.828844</ele>
        <time>2023-03-18T16:57:23.837Z</time>
      </trkpt>
      <trkpt lat="44.099364" lon="9.738676">
        <ele>27.683104</ele>
        <time>2023-03-18T16:57:48.370Z</time>
      </trkpt>
      <trkpt lat="44.099404" lon="9.738552">
        <ele>17.647747</ele>
        <time>2023-03-18T16:58:23.981Z</time>
      </trkpt>
      <trkpt lat="44.099387" lon="9.738471">
        <ele>16.458725</ele>
        <time>2023-03-18T16:58:43.989Z</time>
      </trkpt>
      <trkpt lat="44.09938" lon="9.738439">
        <ele>17.631893</ele>
        <time>2023-03-18T16:58:59.013Z</time>
      </trkpt>
      <trkpt lat="44.099363" lon="9.738416">
        <ele>17.962177</ele>
        <time>2023-03-18T16:59:17.036Z</time>
      </trkpt>
      <trkpt lat="44.099317" lon="9.738274">
        <ele>19.288599</ele>
        <time>2023-03-18T16:59:28.672Z</time>
      </trkpt>
      <trkpt lat="44.099249" lon="9.738134">
        <ele>20.736565</ele>
        <time>2023-03-18T16:59:38.845Z</time>
      </trkpt>
    </trkseg>
  </trk>
</gpx>
