<?xml version="1.0" encoding="UTF-8"?>
<gpx version="1.1" creator="Cicerone Map Portal" schemaLocation="http://www.topografix.com/GPX/1/1   http://www.topografix.com/GPX/1/1/gpx.xsd" xmlns="http://www.topografix.com/GPX/1/1" xmlns:xsi="http://www.w3.org/2001/XMLSchema-instance" xsi:schemaLocation="http://www.topografix.com/GPX/1/1 http://www.topografix.com/GPX/1/1/gpx.xsd http://www.garmin.com/xmlschemas/GpxExtensions/v3 http://www.garmin.com/xmlschemas/GpxExtensionsv3.xsd http://www.garmin.com/xmlschemas/TrackPointExtension/v1 http://www.garmin.com/xmlschemas/TrackPointExtensionv1.xsd http://www.garmin.com/xmlschemas/PowerExtension/v1 http://www.garmin.com/xmlschemas/PowerExtensionv1.xsd http://www.topografix.com/GPX/gpx_style/0/2 http://www.topografix.com/GPX/gpx_style/0/2/gpx_style.xsd" xmlns:gpxtpx="http://www.garmin.com/xmlschemas/TrackPointExtension/v1" xmlns:gpxx="http://www.garmin.com/xmlschemas/GpxExtensions/v3" xmlns:gpxpx="http://www.garmin.com/xmlschemas/PowerExtension/v1" xmlns:gpx_style="http://www.topografix.com/GPX/gpx_style/0/2">
  <metadata>
    <name>Stage-11_25-02-2020</name>
    <author>
      <name>gpx.studio</name>
      <link href="https://gpx.studio"/>
    </author>
  </metadata>
  <trk>
    <name>Stage 11</name>
    <desc>Export from Cicerone map portal</desc>
    <trkseg>
      <trkpt lat="45.84165743755778" lon="7.484071608938098">
        <ele>2655.8604765651226</ele>
      </trkpt>
      <trkpt lat="45.841538643106844" lon="7.484461256334217">
        <ele>2651.3334698781164</ele>
      </trkpt>
      <trkpt lat="45.841019665248176" lon="7.4846154719972855">
        <ele>2637.0202729764787</ele>
      </trkpt>
      <trkpt lat="45.84119248209491" lon="7.485818979957504">
        <ele>2627.252167915671</ele>
      </trkpt>
      <trkpt lat="45.84140703989498" lon="7.486504747655407">
        <ele>2620.9546182853787</ele>
      </trkpt>
      <trkpt lat="45.84180858588333" lon="7.4867172716363255">
        <ele>2606.992876422049</ele>
      </trkpt>
      <trkpt lat="45.84176168728837" lon="7.4877767793063725">
        <ele>2606.4166520913614</ele>
      </trkpt>
      <trkpt lat="45.8410352566309" lon="7.488302054674229">
        <ele>2575.38141170383</ele>
      </trkpt>
      <trkpt lat="45.84025409177493" lon="7.487282865358675">
        <ele>2546.0605110883403</ele>
      </trkpt>
      <trkpt lat="45.839848498031294" lon="7.486142279899481">
        <ele>2549.69965681129</ele>
      </trkpt>
      <trkpt lat="45.83866553705415" lon="7.485658406307588">
        <ele>2525.8706445113435</ele>
      </trkpt>
      <trkpt lat="45.837186969829126" lon="7.4856272763169525">
        <ele>2521.324046197014</ele>
      </trkpt>
      <trkpt lat="45.83558668508957" lon="7.485782556047149">
        <ele>2541.0803867846316</ele>
      </trkpt>
      <trkpt lat="45.834787272374115" lon="7.4855120930700165">
        <ele>2544.798238525201</ele>
      </trkpt>
      <trkpt lat="45.83389088228787" lon="7.485710438687221">
        <ele>2551.8049587060154</ele>
      </trkpt>
      <trkpt lat="45.83319702764582" lon="7.485331718280468">
        <ele>2561.538370890343</ele>
      </trkpt>
      <trkpt lat="45.831133386342636" lon="7.486463444613992">
        <ele>2582.766026098243</ele>
      </trkpt>
      <trkpt lat="45.830199393837006" lon="7.485838623513992">
        <ele>2604.1481676507424</ele>
      </trkpt>
      <trkpt lat="45.82969909996544" lon="7.483749024632876">
        <ele>2608.329287075978</ele>
      </trkpt>
      <trkpt lat="45.8295771980367" lon="7.4824144084099755">
        <ele>2618.6031410762853</ele>
      </trkpt>
      <trkpt lat="45.82922290326658" lon="7.481916086719995">
        <ele>2629.82911756501</ele>
      </trkpt>
      <trkpt lat="45.828787806533725" lon="7.481808406106674">
        <ele>2640.634148070728</ele>
      </trkpt>
      <trkpt lat="45.82827660854828" lon="7.480776383663144">
        <ele>2679.021704343118</ele>
      </trkpt>
      <trkpt lat="45.828252232669335" lon="7.478998800599285">
        <ele>2636.863371466228</ele>
      </trkpt>
      <trkpt lat="45.827864378080655" lon="7.478605269593358">
        <ele>2610.2748206097767</ele>
      </trkpt>
      <trkpt lat="45.827997115494775" lon="7.477939075166085">
        <ele>2590.6959238679497</ele>
      </trkpt>
      <trkpt lat="45.82797335192372" lon="7.477130534650739">
        <ele>2567.9262219639386</ele>
      </trkpt>
      <trkpt lat="45.82901221102621" lon="7.475352536921686">
        <ele>2541.2222605622073</ele>
      </trkpt>
      <trkpt lat="45.829802248351186" lon="7.472967916479126">
        <ele>2553.670489477913</ele>
      </trkpt>
      <trkpt lat="45.830042827330544" lon="7.4709710600341594">
        <ele>2571.0798010835742</ele>
      </trkpt>
      <trkpt lat="45.83072592397991" lon="7.4692747507478545">
        <ele>2601.099218602344</ele>
      </trkpt>
      <trkpt lat="45.83023244937273" lon="7.46910558299583">
        <ele>2596.1514784487917</ele>
      </trkpt>
      <trkpt lat="45.83063177709141" lon="7.467719636757734">
        <ele>2643.279224484336</ele>
      </trkpt>
      <trkpt lat="45.8310123737828" lon="7.465913890712723">
        <ele>2677.940381209078</ele>
      </trkpt>
      <trkpt lat="45.83060364708497" lon="7.464292190187404">
        <ele>2696.5251063356927</ele>
      </trkpt>
      <trkpt lat="45.83019711746838" lon="7.463873885700793">
        <ele>2689.1111331367047</ele>
      </trkpt>
      <trkpt lat="45.830104095524305" lon="7.463001919901432">
        <ele>2676.884043934622</ele>
      </trkpt>
      <trkpt lat="45.82940651726584" lon="7.461721408079875">
        <ele>2698.2822057620137</ele>
      </trkpt>
      <trkpt lat="45.828506580774814" lon="7.4602704244426645">
        <ele>2689.561027449342</ele>
      </trkpt>
      <trkpt lat="45.82801874613039" lon="7.459469475846357">
        <ele>2685.585545546412</ele>
      </trkpt>
      <trkpt lat="45.82720360878538" lon="7.458226485890747">
        <ele>2693.56216410811</ele>
      </trkpt>
      <trkpt lat="45.82744902676747" lon="7.457512509378787">
        <ele>2720.0547442174156</ele>
      </trkpt>
      <trkpt lat="45.82721196872297" lon="7.455900099946196">
        <ele>2743.758288656169</ele>
      </trkpt>
      <trkpt lat="45.826992874972625" lon="7.455034408960983">
        <ele>2767.66013834618</ele>
      </trkpt>
      <trkpt lat="45.826230445773106" lon="7.454009202212072">
        <ele>2791.524776181188</ele>
      </trkpt>
      <trkpt lat="45.82628651500947" lon="7.453393609247973">
        <ele>2776.3294745964595</ele>
      </trkpt>
      <trkpt lat="45.82696372154906" lon="7.453076643708314">
        <ele>2735.3509082289806</ele>
      </trkpt>
      <trkpt lat="45.82689854544501" lon="7.452615837076982">
        <ele>2715.7093180544043</ele>
      </trkpt>
      <trkpt lat="45.82727034882177" lon="7.451592108859889">
        <ele>2661.630955538305</ele>
      </trkpt>
      <trkpt lat="45.82777187639127" lon="7.450716637343145">
        <ele>2623.0862801283074</ele>
      </trkpt>
      <trkpt lat="45.82823492934886" lon="7.450487539951529">
        <ele>2601.1802424231964</ele>
      </trkpt>
      <trkpt lat="45.82880268600743" lon="7.450338810924347">
        <ele>2561.610133119085</ele>
      </trkpt>
      <trkpt lat="45.828638956579496" lon="7.448559881830889">
        <ele>2503.8727842454314</ele>
      </trkpt>
      <trkpt lat="45.82920627958869" lon="7.448170927518949">
        <ele>2472.386394327682</ele>
      </trkpt>
      <trkpt lat="45.82890147204923" lon="7.4474899301620034">
        <ele>2461.443232891077</ele>
      </trkpt>
      <trkpt lat="45.82931130006188" lon="7.446704467493537">
        <ele>2446.0033708990186</ele>
      </trkpt>
      <trkpt lat="45.82968102393312" lon="7.446188154706565">
        <ele>2426.9054163251026</ele>
      </trkpt>
      <trkpt lat="45.82999139572086" lon="7.446353268470815">
        <ele>2411.043990601393</ele>
      </trkpt>
      <trkpt lat="45.83016398263913" lon="7.446783004483068">
        <ele>2396.5975286666085</ele>
      </trkpt>
      <trkpt lat="45.83055938060941" lon="7.44673767249089">
        <ele>2379.6612656372354</ele>
      </trkpt>
      <trkpt lat="45.83081823783036" lon="7.447008463391475">
        <ele>2370.7843431696433</ele>
      </trkpt>
      <trkpt lat="45.83180206748406" lon="7.446702004665194">
        <ele>2341.388590263553</ele>
      </trkpt>
      <trkpt lat="45.83216442092577" lon="7.444544207661443">
        <ele>2312.8131981294237</ele>
      </trkpt>
      <trkpt lat="45.8319898191176" lon="7.442541883431746">
        <ele>2271.351891294459</ele>
      </trkpt>
      <trkpt lat="45.831821499915435" lon="7.441544740100548">
        <ele>2254.3887987532116</ele>
      </trkpt>
      <trkpt lat="45.83166965209471" lon="7.439894045901777">
        <ele>2229.8832397578076</ele>
      </trkpt>
      <trkpt lat="45.832214733058585" lon="7.43967014089255">
        <ele>2228.4440615542567</ele>
      </trkpt>
      <trkpt lat="45.832089729707974" lon="7.43829818949083">
        <ele>2208.748955883031</ele>
      </trkpt>
      <trkpt lat="45.83244675781918" lon="7.43788671632417">
        <ele>2203.1518542243575</ele>
      </trkpt>
      <trkpt lat="45.8332767106332" lon="7.438378757928213">
        <ele>2201.253430533764</ele>
      </trkpt>
      <trkpt lat="45.834554152283836" lon="7.4382895969712255">
        <ele>2201.9819920735185</ele>
      </trkpt>
      <trkpt lat="45.83507253619749" lon="7.4388568909340345">
        <ele>2187.358553823581</ele>
      </trkpt>
      <trkpt lat="45.835352536459595" lon="7.439255535092031">
        <ele>2177.054639190589</ele>
      </trkpt>
      <trkpt lat="45.835860308070274" lon="7.43938505250475">
        <ele>2148.774261665646</ele>
      </trkpt>
      <trkpt lat="45.83665297755224" lon="7.439187519663978">
        <ele>2126.185458785785</ele>
      </trkpt>
      <trkpt lat="45.83699302327696" lon="7.438529565433367">
        <ele>2102.657464206577</ele>
      </trkpt>
      <trkpt lat="45.83718718291353" lon="7.4376174832215165">
        <ele>2081.983873820277</ele>
      </trkpt>
      <trkpt lat="45.83678554067761" lon="7.437405360017007">
        <ele>2065.501595105256</ele>
      </trkpt>
      <trkpt lat="45.836862429382535" lon="7.436860077215344">
        <ele>2053.645255181692</ele>
      </trkpt>
      <trkpt lat="45.83649303942487" lon="7.436491656241691">
        <ele>2041.562681437711</ele>
      </trkpt>
      <trkpt lat="45.836401665680135" lon="7.435696892132878">
        <ele>2035.1386744460533</ele>
      </trkpt>
      <trkpt lat="45.83650222274968" lon="7.434863295007472">
        <ele>2030.9593460792912</ele>
      </trkpt>
      <trkpt lat="45.83744408020037" lon="7.433350302427265">
        <ele>2021.0442156148047</ele>
      </trkpt>
      <trkpt lat="45.83873688056783" lon="7.4324093379303715">
        <ele>2010.3083742762715</ele>
      </trkpt>
      <trkpt lat="45.8398260828681" lon="7.431941425281927">
        <ele>1999.5857477125674</ele>
      </trkpt>
      <trkpt lat="45.84108797904162" lon="7.431260954665062">
        <ele>1987.7342361160854</ele>
      </trkpt>
      <trkpt lat="45.841810524743074" lon="7.431328149086375">
        <ele>1979.184066697207</ele>
      </trkpt>
      <trkpt lat="45.84236292317838" lon="7.431068581018938">
        <ele>1973.5917758919468</ele>
      </trkpt>
      <trkpt lat="45.84284034123505" lon="7.431431631194664">
        <ele>1968.9693706767678</ele>
      </trkpt>
      <trkpt lat="45.844212140206444" lon="7.431198098429631">
        <ele>1954.0203738915475</ele>
      </trkpt>
      <trkpt lat="45.845276436686845" lon="7.430072573885895">
        <ele>1944.7560991524367</ele>
      </trkpt>
      <trkpt lat="45.84644697188921" lon="7.4292922069983565">
        <ele>1933.20333898931</ele>
      </trkpt>
      <trkpt lat="45.84690731077733" lon="7.4282119232293145">
        <ele>1932.314568460656</ele>
      </trkpt>
      <trkpt lat="45.847137447629834" lon="7.426982496068059">
        <ele>1930.2865674243435</ele>
      </trkpt>
      <trkpt lat="45.84987344872184" lon="7.424417091693306">
        <ele>1902.7252183916157</ele>
      </trkpt>
      <trkpt lat="45.850297077953066" lon="7.423091163802859">
        <ele>1888.2468930627376</ele>
      </trkpt>
      <trkpt lat="45.850541044693145" lon="7.421692124713968">
        <ele>1865.0438476049303</ele>
      </trkpt>
      <trkpt lat="45.85162741248358" lon="7.419259160728503">
        <ele>1821.5773800308914</ele>
      </trkpt>
      <trkpt lat="45.8521356081288" lon="7.4186663278283875">
        <ele>1806.6533493442064</ele>
      </trkpt>
      <trkpt lat="45.85222914438418" lon="7.418068433492131">
        <ele>1799.9747733691543</ele>
      </trkpt>
      <trkpt lat="45.852668475848674" lon="7.417607988502034">
        <ele>1789.6412255818805</ele>
      </trkpt>
      <trkpt lat="45.85307758407565" lon="7.415911009608225">
        <ele>1762.6919942421086</ele>
      </trkpt>
      <trkpt lat="45.85319261760291" lon="7.414718793597508">
        <ele>1757.696413471216</ele>
      </trkpt>
      <trkpt lat="45.85373315940503" lon="7.413391525460113">
        <ele>1749.0829000245083</ele>
      </trkpt>
      <trkpt lat="45.853703094771355" lon="7.412010771162016">
        <ele>1734.1454863228391</ele>
      </trkpt>
      <trkpt lat="45.85344540193653" lon="7.411791557885055">
        <ele>1741.6040874709754</ele>
      </trkpt>
      <trkpt lat="45.85392070905908" lon="7.411329242946481">
        <ele>1714.415285315031</ele>
      </trkpt>
      <trkpt lat="45.85394664254989" lon="7.409445055017289">
        <ele>1686.459807088346</ele>
      </trkpt>
      <trkpt lat="45.853898961482976" lon="7.408235178573213">
        <ele>1655.5428832031546</ele>
      </trkpt>
      <trkpt lat="45.853639676516465" lon="7.407216484320711">
        <ele>1658.95382643884</ele>
      </trkpt>
      <trkpt lat="45.85392297533625" lon="7.406159980790999">
        <ele>1633.0894423175187</ele>
      </trkpt>
      <trkpt lat="45.85424064216242" lon="7.405999808949546">
        <ele>1613.870841245483</ele>
      </trkpt>
      <trkpt lat="45.8544922702046" lon="7.40376893722707">
        <ele>1559.327904583937</ele>
      </trkpt>
      <trkpt lat="45.85486573324996" lon="7.401582322169412">
        <ele>1536.79224507461</ele>
      </trkpt>
      <trkpt lat="45.85473424189669" lon="7.399681396337859">
        <ele>1515.735236034219</ele>
      </trkpt>
      <trkpt lat="45.85425974326356" lon="7.397977152818886">
        <ele>1474.8275898517809</ele>
      </trkpt>
      <trkpt lat="45.85409797669938" lon="7.397263098318989">
        <ele>1453.8876917048713</ele>
      </trkpt>
      <trkpt lat="45.85413128655745" lon="7.3959729291391625">
        <ele>1411.937020033204</ele>
      </trkpt>
      <trkpt lat="45.85428884258208" lon="7.395499527632296">
        <ele>1391.3044761708863</ele>
      </trkpt>
      <trkpt lat="45.854568378493695" lon="7.395872323518632">
        <ele>1377.797748129482</ele>
      </trkpt>
      <trkpt lat="45.854596990666494" lon="7.394839140472345">
        <ele>1354.9048514304461</ele>
      </trkpt>
      <trkpt lat="45.855171754048065" lon="7.394758541159756">
        <ele>1343.2018422253425</ele>
      </trkpt>
      <trkpt lat="45.85526134497778" lon="7.394005997780132">
        <ele>1355.248232606527</ele>
      </trkpt>
      <trkpt lat="45.85491890584281" lon="7.393275271837307">
        <ele>1336.5646931316703</ele>
      </trkpt>
      <trkpt lat="45.854934575692226" lon="7.392449082511393">
        <ele>1345.9472204748363</ele>
      </trkpt>
      <trkpt lat="45.854788229998526" lon="7.391631080296332">
        <ele>1358.9512935048774</ele>
      </trkpt>
      <trkpt lat="45.855129812720186" lon="7.390865797075609">
        <ele>1397.4398308600948</ele>
      </trkpt>
      <trkpt lat="45.85490718559447" lon="7.389148873197336">
        <ele>1436.2247559424754</ele>
      </trkpt>
      <trkpt lat="45.85502891961507" lon="7.388239932728901">
        <ele>1446.8087106570306</ele>
      </trkpt>
      <trkpt lat="45.85492554668905" lon="7.38770349523797">
        <ele>1448.8169648889382</ele>
      </trkpt>
      <trkpt lat="45.85514999374743" lon="7.3870578405390015">
        <ele>1453.2220072493608</ele>
      </trkpt>
    </trkseg>
  </trk>
</gpx>
