<?xml version="1.0" encoding="UTF-8"?>
<gpx version="1.1" creator="Cicerone Map Portal" schemaLocation="http://www.topografix.com/GPX/1/1   http://www.topografix.com/GPX/1/1/gpx.xsd" xmlns="http://www.topografix.com/GPX/1/1" xmlns:xsi="http://www.w3.org/2001/XMLSchema-instance" xsi:schemaLocation="http://www.topografix.com/GPX/1/1 http://www.topografix.com/GPX/1/1/gpx.xsd http://www.garmin.com/xmlschemas/GpxExtensions/v3 http://www.garmin.com/xmlschemas/GpxExtensionsv3.xsd http://www.garmin.com/xmlschemas/TrackPointExtension/v1 http://www.garmin.com/xmlschemas/TrackPointExtensionv1.xsd http://www.garmin.com/xmlschemas/PowerExtension/v1 http://www.garmin.com/xmlschemas/PowerExtensionv1.xsd http://www.topografix.com/GPX/gpx_style/0/2 http://www.topografix.com/GPX/gpx_style/0/2/gpx_style.xsd" xmlns:gpxtpx="http://www.garmin.com/xmlschemas/TrackPointExtension/v1" xmlns:gpxx="http://www.garmin.com/xmlschemas/GpxExtensions/v3" xmlns:gpxpx="http://www.garmin.com/xmlschemas/PowerExtension/v1" xmlns:gpx_style="http://www.topografix.com/GPX/gpx_style/0/2">
  <metadata>
    <name>Stage-8_25-02-2020</name>
    <author>
      <name>gpx.studio</name>
      <link href="https://gpx.studio"/>
    </author>
  </metadata>
  <trk>
    <name>Stage 8</name>
    <desc>Export from Cicerone map portal</desc>
    <trkseg>
      <trkpt lat="45.858393262170516" lon="7.693727651679437">
        <ele>2546.377192082521</ele>
      </trkpt>
      <trkpt lat="45.858624497688965" lon="7.693588359043385">
        <ele>2544.9998952679316</ele>
      </trkpt>
      <trkpt lat="45.85859413407831" lon="7.69219694631967">
        <ele>2535.656642875597</ele>
      </trkpt>
      <trkpt lat="45.858912010247614" lon="7.691899018762263">
        <ele>2532.5730902979526</ele>
      </trkpt>
      <trkpt lat="45.859098797246325" lon="7.691374819840633">
        <ele>2528.9576333271725</ele>
      </trkpt>
      <trkpt lat="45.85936265359346" lon="7.690253942839562">
        <ele>2536.4925064189574</ele>
      </trkpt>
      <trkpt lat="45.85942397086701" lon="7.689761141762158">
        <ele>2539.644453960855</ele>
      </trkpt>
      <trkpt lat="45.859648443969924" lon="7.689312619958548">
        <ele>2546.8988418534786</ele>
      </trkpt>
      <trkpt lat="45.85998600565447" lon="7.689091165071">
        <ele>2560.8803476433586</ele>
      </trkpt>
      <trkpt lat="45.860153648749176" lon="7.688516216121961">
        <ele>2574.0485141783033</ele>
      </trkpt>
      <trkpt lat="45.860079916833804" lon="7.687616769437482">
        <ele>2589.1962233425165</ele>
      </trkpt>
      <trkpt lat="45.86000001205346" lon="7.687259250360763">
        <ele>2592.6499184574755</ele>
      </trkpt>
      <trkpt lat="45.85967985873035" lon="7.686628780507039">
        <ele>2601.6827042497507</ele>
      </trkpt>
      <trkpt lat="45.85952680879865" lon="7.6862229594708">
        <ele>2610.7546915471944</ele>
      </trkpt>
      <trkpt lat="45.859355189822885" lon="7.685792180877179">
        <ele>2614.023098806322</ele>
      </trkpt>
      <trkpt lat="45.859110991033695" lon="7.685338867634906">
        <ele>2623.2692505300756</ele>
      </trkpt>
      <trkpt lat="45.85888705077089" lon="7.684987818943856">
        <ele>2632.579144259838</ele>
      </trkpt>
      <trkpt lat="45.85853595647649" lon="7.684590893180321">
        <ele>2642.4303193088817</ele>
      </trkpt>
      <trkpt lat="45.85835140709655" lon="7.684392836180037">
        <ele>2644.18350645708</ele>
      </trkpt>
      <trkpt lat="45.85751421765413" lon="7.684017730281999">
        <ele>2659.016481865957</ele>
      </trkpt>
      <trkpt lat="45.857219388772045" lon="7.683721462197553">
        <ele>2674.093312761178</ele>
      </trkpt>
      <trkpt lat="45.85722108231148" lon="7.683798760524814">
        <ele>2670.46364134355</ele>
      </trkpt>
      <trkpt lat="45.85666855894252" lon="7.683256149055517">
        <ele>2694.8214683693213</ele>
      </trkpt>
      <trkpt lat="45.85619200001403" lon="7.682890675222852">
        <ele>2721.3077855036036</ele>
      </trkpt>
      <trkpt lat="45.8560282751816" lon="7.682820652533667">
        <ele>2727.6614362587643</ele>
      </trkpt>
      <trkpt lat="45.855512319270225" lon="7.6823022124895575">
        <ele>2736.249220123972</ele>
      </trkpt>
      <trkpt lat="45.85516791924266" lon="7.681389221097325">
        <ele>2761.0605165696484</ele>
      </trkpt>
      <trkpt lat="45.85483255566319" lon="7.68088847999627">
        <ele>2773.1512761655135</ele>
      </trkpt>
      <trkpt lat="45.85460181783375" lon="7.680228302485302">
        <ele>2775.772571411928</ele>
      </trkpt>
      <trkpt lat="45.85455167489117" lon="7.679585802222772">
        <ele>2773.956071257172</ele>
      </trkpt>
      <trkpt lat="45.853824754799085" lon="7.6793090026201485">
        <ele>2752.7251635955304</ele>
      </trkpt>
      <trkpt lat="45.8532559046186" lon="7.678844576711295">
        <ele>2727.2292506567114</ele>
      </trkpt>
      <trkpt lat="45.85296162861363" lon="7.678574126525978">
        <ele>2718.2466976154674</ele>
      </trkpt>
      <trkpt lat="45.85250861181871" lon="7.677640301235203">
        <ele>2705.1640264252956</ele>
      </trkpt>
      <trkpt lat="45.8523504336402" lon="7.677002690732926">
        <ele>2695.2894421002807</ele>
      </trkpt>
      <trkpt lat="45.85234805122111" lon="7.676074390781814">
        <ele>2675.5814458302325</ele>
      </trkpt>
      <trkpt lat="45.85271479090717" lon="7.675542094159926">
        <ele>2674.770739822773</ele>
      </trkpt>
      <trkpt lat="45.85276923907336" lon="7.674740173553894">
        <ele>2670.1490504851995</ele>
      </trkpt>
      <trkpt lat="45.85317651328176" lon="7.674412352638563">
        <ele>2669.418773687764</ele>
      </trkpt>
      <trkpt lat="45.853598667653245" lon="7.672304363305712">
        <ele>2646.86229296485</ele>
      </trkpt>
      <trkpt lat="45.85379654992299" lon="7.6714701641824545">
        <ele>2646.927101274231</ele>
      </trkpt>
      <trkpt lat="45.853600624764724" lon="7.670756888933845">
        <ele>2648.6138893557345</ele>
      </trkpt>
      <trkpt lat="45.85378389875436" lon="7.670078081994972">
        <ele>2655.928255571746</ele>
      </trkpt>
      <trkpt lat="45.85378997589103" lon="7.669536220159">
        <ele>2656.8197833313084</ele>
      </trkpt>
      <trkpt lat="45.853778047007296" lon="7.668995171208374">
        <ele>2653.2951973666354</ele>
      </trkpt>
      <trkpt lat="45.85398215426248" lon="7.668444364054026">
        <ele>2653.385508272058</ele>
      </trkpt>
      <trkpt lat="45.85353681718774" lon="7.667046041988113">
        <ele>2674.5598568987853</ele>
      </trkpt>
      <trkpt lat="45.85343900809225" lon="7.66506465203129">
        <ele>2695.7271552753436</ele>
      </trkpt>
      <trkpt lat="45.85403994253619" lon="7.665346949060494">
        <ele>2674.5719577514137</ele>
      </trkpt>
      <trkpt lat="45.85443658251938" lon="7.665354799087647">
        <ele>2657.661286362364</ele>
      </trkpt>
      <trkpt lat="45.855017806892945" lon="7.665560624717468">
        <ele>2642.797598064759</ele>
      </trkpt>
      <trkpt lat="45.85596494258673" lon="7.664382983045441">
        <ele>2608.863087245602</ele>
      </trkpt>
      <trkpt lat="45.856106691678455" lon="7.664273404422175">
        <ele>2606.998148584412</ele>
      </trkpt>
      <trkpt lat="45.8564413527482" lon="7.663922973515192">
        <ele>2592.239330451357</ele>
      </trkpt>
      <trkpt lat="45.85681828271143" lon="7.663854330722281">
        <ele>2582.8895227307657</ele>
      </trkpt>
      <trkpt lat="45.85726985365726" lon="7.6630859328053775">
        <ele>2569.575390968408</ele>
      </trkpt>
      <trkpt lat="45.85731474987666" lon="7.6626712325468365">
        <ele>2565.714509205656</ele>
      </trkpt>
      <trkpt lat="45.85641207868413" lon="7.6617836231629735">
        <ele>2540.040017339451</ele>
      </trkpt>
      <trkpt lat="45.85618179115677" lon="7.661149276197691">
        <ele>2526.5532043403605</ele>
      </trkpt>
      <trkpt lat="45.856866228193994" lon="7.65949574040057">
        <ele>2487.498679969914</ele>
      </trkpt>
      <trkpt lat="45.857056020830605" lon="7.6583007188851555">
        <ele>2437.3712305201525</ele>
      </trkpt>
      <trkpt lat="45.857456657698975" lon="7.658488876873237">
        <ele>2429.9556399829125</ele>
      </trkpt>
      <trkpt lat="45.85784591743581" lon="7.656536814321623">
        <ele>2384.011703795159</ele>
      </trkpt>
      <trkpt lat="45.85840059107277" lon="7.656356875609">
        <ele>2366.490620213242</ele>
      </trkpt>
      <trkpt lat="45.85855290918198" lon="7.655911488113394">
        <ele>2353.399603289428</ele>
      </trkpt>
      <trkpt lat="45.85834516047876" lon="7.655482454031275">
        <ele>2339.0152797600385</ele>
      </trkpt>
      <trkpt lat="45.85880067244961" lon="7.654894326222197">
        <ele>2320.336766982402</ele>
      </trkpt>
      <trkpt lat="45.85890897418772" lon="7.6540898344765775">
        <ele>2308.494100114361</ele>
      </trkpt>
      <trkpt lat="45.858864092087956" lon="7.652879622411783">
        <ele>2299.8152489805043</ele>
      </trkpt>
      <trkpt lat="45.85893053121983" lon="7.651322007934698">
        <ele>2289.1345707606943</ele>
      </trkpt>
      <trkpt lat="45.8587899990051" lon="7.6503553189357385">
        <ele>2283.3306165963095</ele>
      </trkpt>
      <trkpt lat="45.85844360311437" lon="7.649365183747905">
        <ele>2269.9190505711686</ele>
      </trkpt>
      <trkpt lat="45.859198835062486" lon="7.648946239870428">
        <ele>2249.177575835592</ele>
      </trkpt>
      <trkpt lat="45.85974293996303" lon="7.64863538555114">
        <ele>2243.74660980901</ele>
      </trkpt>
      <trkpt lat="45.86018041143183" lon="7.648048001829277">
        <ele>2235.9336963141245</ele>
      </trkpt>
      <trkpt lat="45.86021607496904" lon="7.647220989819617">
        <ele>2226.5652295826026</ele>
      </trkpt>
      <trkpt lat="45.86120877120235" lon="7.646479301526215">
        <ele>2207.1933859031815</ele>
      </trkpt>
      <trkpt lat="45.8616359031262" lon="7.645428060733266">
        <ele>2188.9949826916954</ele>
      </trkpt>
      <trkpt lat="45.86288772959428" lon="7.644184391431313">
        <ele>2150.6514400643127</ele>
      </trkpt>
      <trkpt lat="45.863615150616106" lon="7.642861431765407">
        <ele>2125.038764196306</ele>
      </trkpt>
      <trkpt lat="45.86420408797572" lon="7.642602373881953">
        <ele>2105.2307699999656</ele>
      </trkpt>
      <trkpt lat="45.86446455487988" lon="7.641352290710409">
        <ele>2101.1099394912494</ele>
      </trkpt>
      <trkpt lat="45.86482365009173" lon="7.640484619948748">
        <ele>2091.351074364921</ele>
      </trkpt>
      <trkpt lat="45.86528165407795" lon="7.637834836194868">
        <ele>2055.889170239317</ele>
      </trkpt>
      <trkpt lat="45.866441721928375" lon="7.637082883122491">
        <ele>2000.4211579378937</ele>
      </trkpt>
      <trkpt lat="45.86736637402257" lon="7.63652460343739">
        <ele>1950.7089392696923</ele>
      </trkpt>
      <trkpt lat="45.86823643812752" lon="7.635943006950116">
        <ele>1906.253081125501</ele>
      </trkpt>
      <trkpt lat="45.8686401423591" lon="7.6354601540814295">
        <ele>1887.4819274244514</ele>
      </trkpt>
      <trkpt lat="45.86938735159883" lon="7.634757510937493">
        <ele>1855.0934888886063</ele>
      </trkpt>
      <trkpt lat="45.86995682686955" lon="7.634703264579719">
        <ele>1848.2641956640855</ele>
      </trkpt>
      <trkpt lat="45.87044362351557" lon="7.633906992955364">
        <ele>1838.3309812309321</ele>
      </trkpt>
      <trkpt lat="45.870298566617265" lon="7.633062292674368">
        <ele>1838.7122102717922</ele>
      </trkpt>
      <trkpt lat="45.87124599928251" lon="7.631717155789277">
        <ele>1789.6382085119144</ele>
      </trkpt>
      <trkpt lat="45.87139295776424" lon="7.631231954811462">
        <ele>1772.519099130975</ele>
      </trkpt>
      <trkpt lat="45.87172452288082" lon="7.631552124406547">
        <ele>1753.6777113735925</ele>
      </trkpt>
      <trkpt lat="45.8720788174304" lon="7.631277867704827">
        <ele>1724.2988257752252</ele>
      </trkpt>
      <trkpt lat="45.87221717267496" lon="7.630213735959608">
        <ele>1690.907352250822</ele>
      </trkpt>
      <trkpt lat="45.872167302470544" lon="7.629596838137791">
        <ele>1669.4734861460943</ele>
      </trkpt>
      <trkpt lat="45.87283284925457" lon="7.629540463815365">
        <ele>1633.654984668389</ele>
      </trkpt>
      <trkpt lat="45.87284523631956" lon="7.628927734584508">
        <ele>1611.3313390993007</ele>
      </trkpt>
      <trkpt lat="45.87278017052503" lon="7.627994894281625">
        <ele>1579.2576727529658</ele>
      </trkpt>
      <trkpt lat="45.872228083663096" lon="7.627124324896914">
        <ele>1557.2599266240832</ele>
      </trkpt>
      <trkpt lat="45.87348382612342" lon="7.625260562047558">
        <ele>1504.5596431315573</ele>
      </trkpt>
      <trkpt lat="45.87392007088212" lon="7.623821459959909">
        <ele>1500.1496897625052</ele>
      </trkpt>
      <trkpt lat="45.87397079432897" lon="7.623251513484679">
        <ele>1497.536694475439</ele>
      </trkpt>
      <trkpt lat="45.87473805123932" lon="7.622690771373681">
        <ele>1500.440971696009</ele>
      </trkpt>
      <trkpt lat="45.87505293872681" lon="7.622413561617356">
        <ele>1499.6455884585191</ele>
      </trkpt>
    </trkseg>
  </trk>
</gpx>
