<?xml version="1.0" encoding="UTF-8"?>
<gpx version="1.1" creator="Cicerone Map Portal" schemaLocation="http://www.topografix.com/GPX/1/1   http://www.topografix.com/GPX/1/1/gpx.xsd" xmlns="http://www.topografix.com/GPX/1/1" xmlns:xsi="http://www.w3.org/2001/XMLSchema-instance" xsi:schemaLocation="http://www.topografix.com/GPX/1/1 http://www.topografix.com/GPX/1/1/gpx.xsd http://www.garmin.com/xmlschemas/GpxExtensions/v3 http://www.garmin.com/xmlschemas/GpxExtensionsv3.xsd http://www.garmin.com/xmlschemas/TrackPointExtension/v1 http://www.garmin.com/xmlschemas/TrackPointExtensionv1.xsd http://www.garmin.com/xmlschemas/PowerExtension/v1 http://www.garmin.com/xmlschemas/PowerExtensionv1.xsd http://www.topografix.com/GPX/gpx_style/0/2 http://www.topografix.com/GPX/gpx_style/0/2/gpx_style.xsd" xmlns:gpxtpx="http://www.garmin.com/xmlschemas/TrackPointExtension/v1" xmlns:gpxx="http://www.garmin.com/xmlschemas/GpxExtensions/v3" xmlns:gpxpx="http://www.garmin.com/xmlschemas/PowerExtension/v1" xmlns:gpx_style="http://www.topografix.com/GPX/gpx_style/0/2">
  <metadata>
    <name>Stage-6_25-02-2020</name>
    <author>
      <name>gpx.studio</name>
      <link href="https://gpx.studio"/>
    </author>
  </metadata>
  <trk>
    <name>Stage 6</name>
    <desc>Export from Cicerone map portal</desc>
    <trkseg>
      <trkpt lat="45.77937939988321" lon="7.825224185174917">
        <ele>1385.8581239390496</ele>
      </trkpt>
      <trkpt lat="45.77960603087875" lon="7.82572967437034">
        <ele>1386.3030129556398</ele>
      </trkpt>
      <trkpt lat="45.78018264740702" lon="7.825731170524135">
        <ele>1386.029931074784</ele>
      </trkpt>
      <trkpt lat="45.780158827324236" lon="7.8263244569335075">
        <ele>1389.1086805325403</ele>
      </trkpt>
      <trkpt lat="45.78146772915693" lon="7.826011890311433">
        <ele>1389.4910010804515</ele>
      </trkpt>
      <trkpt lat="45.782269905292154" lon="7.825591861645121">
        <ele>1390.9329824890224</ele>
      </trkpt>
      <trkpt lat="45.78347079178151" lon="7.825283808642919">
        <ele>1390.9270413326071</ele>
      </trkpt>
      <trkpt lat="45.78449324125424" lon="7.825060511500209">
        <ele>1392.7173263669474</ele>
      </trkpt>
      <trkpt lat="45.785228706505286" lon="7.824900791663147">
        <ele>1394.6920098534015</ele>
      </trkpt>
      <trkpt lat="45.786337480149385" lon="7.825369219813506">
        <ele>1395.3271860488646</ele>
      </trkpt>
      <trkpt lat="45.78729163203503" lon="7.825329071622809">
        <ele>1398.0051658960672</ele>
      </trkpt>
      <trkpt lat="45.78837710491065" lon="7.825540952015563">
        <ele>1401.9899338194607</ele>
      </trkpt>
      <trkpt lat="45.78960764611815" lon="7.824922539348098">
        <ele>1401.4867622249935</ele>
      </trkpt>
      <trkpt lat="45.790737590472" lon="7.824668927303551">
        <ele>1403.2796046519115</ele>
      </trkpt>
      <trkpt lat="45.79182993928432" lon="7.824339614977261">
        <ele>1405.8169812741655</ele>
      </trkpt>
      <trkpt lat="45.792639013095325" lon="7.824254036411691">
        <ele>1407.0497519509875</ele>
      </trkpt>
      <trkpt lat="45.79303826038011" lon="7.824391774364079">
        <ele>1407.6040264948756</ele>
      </trkpt>
      <trkpt lat="45.793618572077825" lon="7.823697628830526">
        <ele>1409.5917268150827</ele>
      </trkpt>
      <trkpt lat="45.79361217120848" lon="7.82251301987604">
        <ele>1407.3205549513405</ele>
      </trkpt>
      <trkpt lat="45.79412629772047" lon="7.822104978293971">
        <ele>1409.1895339447217</ele>
      </trkpt>
      <trkpt lat="45.79526101904756" lon="7.822082912680739">
        <ele>1412.9749162019878</ele>
      </trkpt>
      <trkpt lat="45.79601661621849" lon="7.822025306621589">
        <ele>1414.401945709065</ele>
      </trkpt>
      <trkpt lat="45.79689137793813" lon="7.822503633373987">
        <ele>1418.9975212098661</ele>
      </trkpt>
      <trkpt lat="45.79735308959141" lon="7.822175055410867">
        <ele>1424.1219517973013</ele>
      </trkpt>
      <trkpt lat="45.79757492082842" lon="7.821573220913892">
        <ele>1427.3247764085722</ele>
      </trkpt>
      <trkpt lat="45.79780896100223" lon="7.821563354052218">
        <ele>1430.191353492742</ele>
      </trkpt>
      <trkpt lat="45.79769510221213" lon="7.821284791128049">
        <ele>1436.0174773465806</ele>
      </trkpt>
      <trkpt lat="45.7978746021451" lon="7.821251462237161">
        <ele>1443.0050932216975</ele>
      </trkpt>
      <trkpt lat="45.79787247820042" lon="7.82114851030665">
        <ele>1446.842742061427</ele>
      </trkpt>
      <trkpt lat="45.79798049675721" lon="7.82114395546776">
        <ele>1449.2885436762904</ele>
      </trkpt>
      <trkpt lat="45.7981165557948" lon="7.820751810777578">
        <ele>1468.7613253209472</ele>
      </trkpt>
      <trkpt lat="45.7979688132421" lon="7.820577718823517">
        <ele>1470.362906710594</ele>
      </trkpt>
      <trkpt lat="45.79824257746473" lon="7.8207464958047295">
        <ele>1469.6199424724762</ele>
      </trkpt>
      <trkpt lat="45.79839610697399" lon="7.820327850424198">
        <ele>1493.3174158558222</ele>
      </trkpt>
      <trkpt lat="45.79866615348583" lon="7.820316458888219">
        <ele>1499.8658253065712</ele>
      </trkpt>
      <trkpt lat="45.79878314385974" lon="7.819873589551371">
        <ele>1515.5603591462582</ele>
      </trkpt>
      <trkpt lat="45.79815037889907" lon="7.819771484541372">
        <ele>1544.1307293401317</ele>
      </trkpt>
      <trkpt lat="45.798142408177796" lon="7.819385413018161">
        <ele>1559.1928977375712</ele>
      </trkpt>
      <trkpt lat="45.79806986441036" lon="7.819362713977009">
        <ele>1563.003934905499</ele>
      </trkpt>
      <trkpt lat="45.79760596818472" lon="7.8187125242978475">
        <ele>1593.4144575352725</ele>
      </trkpt>
      <trkpt lat="45.79755879724334" lon="7.818173550460048">
        <ele>1616.67478128742</ele>
      </trkpt>
      <trkpt lat="45.797342760518745" lon="7.818182672459804">
        <ele>1609.699546042783</ele>
      </trkpt>
      <trkpt lat="45.797569887371466" lon="7.81783819888835">
        <ele>1634.3511180883932</ele>
      </trkpt>
      <trkpt lat="45.79756084578016" lon="7.817400656421924">
        <ele>1647.8945791642868</ele>
      </trkpt>
      <trkpt lat="45.79786477010425" lon="7.817284777126455">
        <ele>1670.9979380694078</ele>
      </trkpt>
      <trkpt lat="45.79796587272645" lon="7.816945620367994">
        <ele>1688.8510265237378</ele>
      </trkpt>
      <trkpt lat="45.798166034498934" lon="7.817040206033728">
        <ele>1690.6037624548114</ele>
      </trkpt>
      <trkpt lat="45.798104576690456" lon="7.8166821549862755">
        <ele>1703.8972545784243</ele>
      </trkpt>
      <trkpt lat="45.79828354316785" lon="7.816623071706713">
        <ele>1713.8396589443337</ele>
      </trkpt>
      <trkpt lat="45.79970809275679" lon="7.816115565212474">
        <ele>1785.8921286387</ele>
      </trkpt>
      <trkpt lat="45.799982302291134" lon="7.815434176969593">
        <ele>1810.6590008724543</ele>
      </trkpt>
      <trkpt lat="45.800750579143994" lon="7.815118313702934">
        <ele>1836.2765479192608</ele>
      </trkpt>
      <trkpt lat="45.8017422442826" lon="7.814277745909598">
        <ele>1879.6176531736292</ele>
      </trkpt>
      <trkpt lat="45.802178580795236" lon="7.814465388074693">
        <ele>1893.727449141507</ele>
      </trkpt>
      <trkpt lat="45.8026164072356" lon="7.813854323350365">
        <ele>1923.0063500098188</ele>
      </trkpt>
      <trkpt lat="45.803321194197785" lon="7.813953317841807">
        <ele>1940.9425171042644</ele>
      </trkpt>
      <trkpt lat="45.803905819090666" lon="7.814340796967737">
        <ele>1949.2279136383174</ele>
      </trkpt>
      <trkpt lat="45.80448660565696" lon="7.813672133808158">
        <ele>1972.3927802859437</ele>
      </trkpt>
      <trkpt lat="45.80421377620441" lon="7.8126788980718445">
        <ele>1993.4590704861544</ele>
      </trkpt>
      <trkpt lat="45.804460362776524" lon="7.81153485358834">
        <ele>2015.896104560785</ele>
      </trkpt>
      <trkpt lat="45.804981921652555" lon="7.81148699700673">
        <ele>2031.3364247418044</ele>
      </trkpt>
      <trkpt lat="45.804185912452056" lon="7.810464406590613">
        <ele>2063.6923118238515</ele>
      </trkpt>
      <trkpt lat="45.8043754087059" lon="7.810044156321078">
        <ele>2080.7697797749934</ele>
      </trkpt>
      <trkpt lat="45.804667195174524" lon="7.81021213537634">
        <ele>2090.4535137674884</ele>
      </trkpt>
      <trkpt lat="45.805202185308794" lon="7.808205620623234">
        <ele>2120.5604468194842</ele>
      </trkpt>
      <trkpt lat="45.80554210887135" lon="7.808088142518681">
        <ele>2122.124230551272</ele>
      </trkpt>
      <trkpt lat="45.80605067605469" lon="7.806546455005853">
        <ele>2148.3407027144603</ele>
      </trkpt>
      <trkpt lat="45.80685725029389" lon="7.804605599604553">
        <ele>2215.3670142818787</ele>
      </trkpt>
      <trkpt lat="45.80717897476784" lon="7.803612850941898">
        <ele>2237.935296122882</ele>
      </trkpt>
      <trkpt lat="45.807688753984635" lon="7.802998572733553">
        <ele>2259.8665486918967</ele>
      </trkpt>
      <trkpt lat="45.80783953729054" lon="7.802451084341338">
        <ele>2276.384001427885</ele>
      </trkpt>
      <trkpt lat="45.80749158531016" lon="7.80218246604223">
        <ele>2291.724583083923</ele>
      </trkpt>
      <trkpt lat="45.80898572806865" lon="7.799516522477883">
        <ele>2349.305579066968</ele>
      </trkpt>
      <trkpt lat="45.80958036990157" lon="7.799516960131387">
        <ele>2354.3195588389526</ele>
      </trkpt>
      <trkpt lat="45.810323632240916" lon="7.798866897089063">
        <ele>2372.0204055788818</ele>
      </trkpt>
      <trkpt lat="45.81104191179974" lon="7.79788290671568">
        <ele>2394.359283025165</ele>
      </trkpt>
      <trkpt lat="45.81172144661864" lon="7.798498127134711">
        <ele>2401.382474497765</ele>
      </trkpt>
      <trkpt lat="45.812186848454" lon="7.798349454506903">
        <ele>2409.338453155665</ele>
      </trkpt>
      <trkpt lat="45.81240640126961" lon="7.797644365071903">
        <ele>2415.5496534022063</ele>
      </trkpt>
      <trkpt lat="45.81245130959853" lon="7.795477947350036">
        <ele>2466.815984077339</ele>
      </trkpt>
      <trkpt lat="45.81294438214145" lon="7.794065424486743">
        <ele>2479.6228286932505</ele>
      </trkpt>
      <trkpt lat="45.814720253268625" lon="7.79368035797576">
        <ele>2514.2100423542815</ele>
      </trkpt>
      <trkpt lat="45.81588289848769" lon="7.791543356574671">
        <ele>2583.5666523028167</ele>
      </trkpt>
      <trkpt lat="45.816105098826625" lon="7.790966921535625">
        <ele>2593.731067950526</ele>
      </trkpt>
      <trkpt lat="45.81669059299934" lon="7.790529561123246">
        <ele>2613.067774748333</ele>
      </trkpt>
      <trkpt lat="45.81703827256522" lon="7.789921973482304">
        <ele>2624.74465145049</ele>
      </trkpt>
      <trkpt lat="45.81758721774752" lon="7.78946038677669">
        <ele>2649.8927593393864</ele>
      </trkpt>
      <trkpt lat="45.81803730079602" lon="7.789441124875007">
        <ele>2677.1777214379927</ele>
      </trkpt>
      <trkpt lat="45.818751187634895" lon="7.788250872216461">
        <ele>2720.574102492814</ele>
      </trkpt>
      <trkpt lat="45.81926250258188" lon="7.7877135497326755">
        <ele>2758.2333819102096</ele>
      </trkpt>
      <trkpt lat="45.81963572014163" lon="7.787465620161995">
        <ele>2782.7099387591834</ele>
      </trkpt>
      <trkpt lat="45.819603694956406" lon="7.786796931442837">
        <ele>2764.1038091153105</ele>
      </trkpt>
      <trkpt lat="45.81972937902059" lon="7.785915310538514">
        <ele>2733.5789088411307</ele>
      </trkpt>
      <trkpt lat="45.819840291175424" lon="7.785188948692649">
        <ele>2710.896011947139</ele>
      </trkpt>
      <trkpt lat="45.81999764841027" lon="7.7840997862653705">
        <ele>2689.314545826431</ele>
      </trkpt>
      <trkpt lat="45.820470408682674" lon="7.7825847260289125">
        <ele>2665.9822302291996</ele>
      </trkpt>
      <trkpt lat="45.82089508571053" lon="7.781355197777212">
        <ele>2636.150476289976</ele>
      </trkpt>
      <trkpt lat="45.82098904511783" lon="7.780681081507769">
        <ele>2626.2524059548837</ele>
      </trkpt>
      <trkpt lat="45.821209564581096" lon="7.780027295244663">
        <ele>2614.0378464122614</ele>
      </trkpt>
      <trkpt lat="45.82134493388075" lon="7.779609116772671">
        <ele>2604.114073534555</ele>
      </trkpt>
      <trkpt lat="45.82124517579497" lon="7.779149501063032">
        <ele>2591.2999362003516</ele>
      </trkpt>
      <trkpt lat="45.82093709231411" lon="7.7782091725359725">
        <ele>2593.6709000858887</ele>
      </trkpt>
      <trkpt lat="45.82077315054201" lon="7.776412167504753">
        <ele>2487.4496932751745</ele>
      </trkpt>
      <trkpt lat="45.82062978307924" lon="7.775593629611475">
        <ele>2461.8561477576764</ele>
      </trkpt>
      <trkpt lat="45.82030963031245" lon="7.774937344594785">
        <ele>2445.4160342437317</ele>
      </trkpt>
      <trkpt lat="45.8199721183047" lon="7.773556688538662">
        <ele>2403.2349210174693</ele>
      </trkpt>
      <trkpt lat="45.82086101581422" lon="7.772206324945726">
        <ele>2334.422606502345</ele>
      </trkpt>
      <trkpt lat="45.82284696848587" lon="7.7706773549548105">
        <ele>2290.693687978466</ele>
      </trkpt>
      <trkpt lat="45.82353328602015" lon="7.76972104882492">
        <ele>2284.857759431959</ele>
      </trkpt>
      <trkpt lat="45.82384978148715" lon="7.768206639446016">
        <ele>2277.572324844492</ele>
      </trkpt>
      <trkpt lat="45.82447473679333" lon="7.7673923487663545">
        <ele>2275.2930728595716</ele>
      </trkpt>
      <trkpt lat="45.82478882755334" lon="7.766032646333233">
        <ele>2254.3347054754945</ele>
      </trkpt>
      <trkpt lat="45.82474008958874" lon="7.764756581049868">
        <ele>2233.1195526842084</ele>
      </trkpt>
      <trkpt lat="45.82501227572815" lon="7.764613585137751">
        <ele>2234.9485586707424</ele>
      </trkpt>
      <trkpt lat="45.824902591500056" lon="7.76376543281464">
        <ele>2187.4220634116473</ele>
      </trkpt>
      <trkpt lat="45.82522199028063" lon="7.763685994846193">
        <ele>2203.9533050200816</ele>
      </trkpt>
      <trkpt lat="45.82524283855136" lon="7.7625041456152495">
        <ele>2163.2611395896583</ele>
      </trkpt>
      <trkpt lat="45.82556633926105" lon="7.761900824566691">
        <ele>2165.1695159935375</ele>
      </trkpt>
      <trkpt lat="45.82609966106303" lon="7.761810931398504">
        <ele>2161.0844693028985</ele>
      </trkpt>
      <trkpt lat="45.82667457511622" lon="7.760801865295607">
        <ele>2136.8583797639208</ele>
      </trkpt>
      <trkpt lat="45.826968899020756" lon="7.757377361101296">
        <ele>2087.168600957616</ele>
      </trkpt>
      <trkpt lat="45.826811938122695" lon="7.756465632934081">
        <ele>2075.8767924092685</ele>
      </trkpt>
      <trkpt lat="45.827161845958805" lon="7.755663102835747">
        <ele>2079.433118351965</ele>
      </trkpt>
      <trkpt lat="45.82712981239183" lon="7.754155447603509">
        <ele>2067.1346137058135</ele>
      </trkpt>
      <trkpt lat="45.827464518976996" lon="7.75284858533437">
        <ele>2054.7626112664757</ele>
      </trkpt>
      <trkpt lat="45.827751402661164" lon="7.751933942438477">
        <ele>2045.0781543942758</ele>
      </trkpt>
      <trkpt lat="45.82831545257826" lon="7.751342310407445">
        <ele>2039.2956335535357</ele>
      </trkpt>
      <trkpt lat="45.82828265028385" lon="7.750647779414646">
        <ele>2015.3953781260116</ele>
      </trkpt>
      <trkpt lat="45.82911087735275" lon="7.7480984760356515">
        <ele>1991.437482781288</ele>
      </trkpt>
      <trkpt lat="45.82982174467679" lon="7.747017647360519">
        <ele>1975.6395174375093</ele>
      </trkpt>
      <trkpt lat="45.83046534373804" lon="7.745680778847252">
        <ele>1963.4642767361113</ele>
      </trkpt>
      <trkpt lat="45.830937700831385" lon="7.743425703518068">
        <ele>1937.8724278050488</ele>
      </trkpt>
      <trkpt lat="45.83109160020927" lon="7.742041039920348">
        <ele>1916.183769319313</ele>
      </trkpt>
      <trkpt lat="45.831634834992585" lon="7.741376350742238">
        <ele>1922.664681607978</ele>
      </trkpt>
      <trkpt lat="45.83222123651318" lon="7.740989805342571">
        <ele>1928.679603748725</ele>
      </trkpt>
      <trkpt lat="45.83283978898873" lon="7.740421393783358">
        <ele>1924.190074038646</ele>
      </trkpt>
      <trkpt lat="45.83328804964099" lon="7.739648332124397">
        <ele>1923.0362062368163</ele>
      </trkpt>
    </trkseg>
  </trk>
</gpx>
