<?xml version="1.0" encoding="UTF-8"?>
<gpx version="1.1" creator="Cicerone Map Portal" schemaLocation="http://www.topografix.com/GPX/1/1   http://www.topografix.com/GPX/1/1/gpx.xsd" xmlns="http://www.topografix.com/GPX/1/1" xmlns:xsi="http://www.w3.org/2001/XMLSchema-instance" xsi:schemaLocation="http://www.topografix.com/GPX/1/1 http://www.topografix.com/GPX/1/1/gpx.xsd http://www.garmin.com/xmlschemas/GpxExtensions/v3 http://www.garmin.com/xmlschemas/GpxExtensionsv3.xsd http://www.garmin.com/xmlschemas/TrackPointExtension/v1 http://www.garmin.com/xmlschemas/TrackPointExtensionv1.xsd http://www.garmin.com/xmlschemas/PowerExtension/v1 http://www.garmin.com/xmlschemas/PowerExtensionv1.xsd http://www.topografix.com/GPX/gpx_style/0/2 http://www.topografix.com/GPX/gpx_style/0/2/gpx_style.xsd" xmlns:gpxtpx="http://www.garmin.com/xmlschemas/TrackPointExtension/v1" xmlns:gpxx="http://www.garmin.com/xmlschemas/GpxExtensions/v3" xmlns:gpxpx="http://www.garmin.com/xmlschemas/PowerExtension/v1" xmlns:gpx_style="http://www.topografix.com/GPX/gpx_style/0/2">
  <metadata>
    <name>Stage-10_25-02-2020</name>
    <author>
      <name>gpx.studio</name>
      <link href="https://gpx.studio"/>
    </author>
  </metadata>
  <trk>
    <name>Stage 10</name>
    <desc>Export from Cicerone map portal</desc>
    <trkseg>
      <trkpt lat="45.876162091677706" lon="7.592729527596809">
        <ele>2167.960190443783</ele>
      </trkpt>
      <trkpt lat="45.8746926670926" lon="7.592666732669321">
        <ele>2159.4224143696047</ele>
      </trkpt>
      <trkpt lat="45.873589853665194" lon="7.592586836482013">
        <ele>2164.790653434831</ele>
      </trkpt>
      <trkpt lat="45.87257421284454" lon="7.592305857275245">
        <ele>2162.5241424577684</ele>
      </trkpt>
      <trkpt lat="45.8715645476974" lon="7.592287297453701">
        <ele>2147.29000048111</ele>
      </trkpt>
      <trkpt lat="45.870968810622095" lon="7.592315095051688">
        <ele>2124.998740224605</ele>
      </trkpt>
      <trkpt lat="45.87043124279727" lon="7.592403502865123">
        <ele>2120.2993345225873</ele>
      </trkpt>
      <trkpt lat="45.86998351434218" lon="7.592527588230591">
        <ele>2106.169855312216</ele>
      </trkpt>
      <trkpt lat="45.86895247302679" lon="7.592409174468629">
        <ele>2105.7581245772303</ele>
      </trkpt>
      <trkpt lat="45.86821980742708" lon="7.592635669871165">
        <ele>2096.940959880635</ele>
      </trkpt>
      <trkpt lat="45.867734495942024" lon="7.593483836964697">
        <ele>2081.7954330734474</ele>
      </trkpt>
      <trkpt lat="45.867337433843886" lon="7.594250481297135">
        <ele>2074.4730379581515</ele>
      </trkpt>
      <trkpt lat="45.86652278133283" lon="7.5948817925520045">
        <ele>2059.2605404852948</ele>
      </trkpt>
      <trkpt lat="45.86557490365882" lon="7.594410037102659">
        <ele>2040.469384901222</ele>
      </trkpt>
      <trkpt lat="45.865236191903605" lon="7.593780914909609">
        <ele>2033.750741228362</ele>
      </trkpt>
      <trkpt lat="45.864613966894346" lon="7.593268208087988">
        <ele>2023.2163873711656</ele>
      </trkpt>
      <trkpt lat="45.864596047051485" lon="7.592481088931963">
        <ele>2020.5392440969017</ele>
      </trkpt>
      <trkpt lat="45.86439332518976" lon="7.591636931486483">
        <ele>2005.2342936020293</ele>
      </trkpt>
      <trkpt lat="45.86432785825633" lon="7.591088889794381">
        <ele>2003.9335622951526</ele>
      </trkpt>
      <trkpt lat="45.864053118217285" lon="7.5908953470452785">
        <ele>1998.9367958840667</ele>
      </trkpt>
      <trkpt lat="45.863532597102726" lon="7.590101220564445">
        <ele>1993.2078562935178</ele>
      </trkpt>
      <trkpt lat="45.86255884791316" lon="7.588591946011131">
        <ele>1997.511447539441</ele>
      </trkpt>
      <trkpt lat="45.861443849480494" lon="7.588695632918188">
        <ele>1994.5477021873116</ele>
      </trkpt>
      <trkpt lat="45.86049792882177" lon="7.58910094582544">
        <ele>2000.009494367205</ele>
      </trkpt>
      <trkpt lat="45.86001772950874" lon="7.589381316514804">
        <ele>2005.0749662607589</ele>
      </trkpt>
      <trkpt lat="45.85975826218331" lon="7.589857723352873">
        <ele>2013.8211007817201</ele>
      </trkpt>
      <trkpt lat="45.85851938888954" lon="7.589270746967058">
        <ele>2050.968290080153</ele>
      </trkpt>
      <trkpt lat="45.858192775113714" lon="7.58838324802738">
        <ele>2088.14145129786</ele>
      </trkpt>
      <trkpt lat="45.857880628809866" lon="7.587340326635664">
        <ele>2127.4058076428373</ele>
      </trkpt>
      <trkpt lat="45.858138907924236" lon="7.5868123934984695">
        <ele>2143.4487571961863</ele>
      </trkpt>
      <trkpt lat="45.85885136989749" lon="7.586443767594232">
        <ele>2183.093744855974</ele>
      </trkpt>
      <trkpt lat="45.85958124563926" lon="7.586048523301698">
        <ele>2188.27079317702</ele>
      </trkpt>
      <trkpt lat="45.85950168860843" lon="7.585283123761166">
        <ele>2219.2147312242923</ele>
      </trkpt>
      <trkpt lat="45.85912513668153" lon="7.58488452812165">
        <ele>2235.4049785854113</ele>
      </trkpt>
      <trkpt lat="45.85871638944211" lon="7.584829792437801">
        <ele>2229.5117718942975</ele>
      </trkpt>
      <trkpt lat="45.85830409329902" lon="7.584926465000725">
        <ele>2219.4872710994055</ele>
      </trkpt>
      <trkpt lat="45.85787887052429" lon="7.584548917438098">
        <ele>2228.0719900371537</ele>
      </trkpt>
      <trkpt lat="45.85702977834122" lon="7.58436707353628">
        <ele>2239.6613533218974</ele>
      </trkpt>
      <trkpt lat="45.85616686241673" lon="7.583906859789626">
        <ele>2263.376281852189</ele>
      </trkpt>
      <trkpt lat="45.855175845515326" lon="7.58368009342893">
        <ele>2253.9062261992794</ele>
      </trkpt>
      <trkpt lat="45.854259813462704" lon="7.583026616862891">
        <ele>2254.0574310090055</ele>
      </trkpt>
      <trkpt lat="45.852825496297115" lon="7.582225112003153">
        <ele>2285.5905244810597</ele>
      </trkpt>
      <trkpt lat="45.85272788945033" lon="7.581447767789423">
        <ele>2274.2923973723505</ele>
      </trkpt>
      <trkpt lat="45.853339702618925" lon="7.580619590326533">
        <ele>2292.0927634719883</ele>
      </trkpt>
      <trkpt lat="45.85346574574759" lon="7.579040447865437">
        <ele>2299.52282856415</ele>
      </trkpt>
      <trkpt lat="45.85440689104759" lon="7.576855633224397">
        <ele>2272.919411865807</ele>
      </trkpt>
      <trkpt lat="45.854646211534174" lon="7.575503247223142">
        <ele>2253.307094089335</ele>
      </trkpt>
      <trkpt lat="45.85498979112115" lon="7.574573853128908">
        <ele>2261.119540993402</ele>
      </trkpt>
      <trkpt lat="45.8550956582763" lon="7.573190199428306">
        <ele>2244.28792651983</ele>
      </trkpt>
      <trkpt lat="45.85575429773767" lon="7.572743043008386">
        <ele>2257.212367902242</ele>
      </trkpt>
      <trkpt lat="45.856415538830234" lon="7.572734221628868">
        <ele>2267.5352491907715</ele>
      </trkpt>
      <trkpt lat="45.85699706512376" lon="7.572710390668222">
        <ele>2269.3138754417478</ele>
      </trkpt>
      <trkpt lat="45.858892570319895" lon="7.5712799808565885">
        <ele>2282.1228750607947</ele>
      </trkpt>
      <trkpt lat="45.85928507583284" lon="7.571106747786585">
        <ele>2287.899591615758</ele>
      </trkpt>
      <trkpt lat="45.85973775035596" lon="7.570414800837571">
        <ele>2291.6840882557103</ele>
      </trkpt>
      <trkpt lat="45.859886745410826" lon="7.5698403177312">
        <ele>2289.915372872504</ele>
      </trkpt>
      <trkpt lat="45.86068182174587" lon="7.569931851859271">
        <ele>2294.0914708362193</ele>
      </trkpt>
      <trkpt lat="45.861098843391176" lon="7.570041189250613">
        <ele>2298.624732590948</ele>
      </trkpt>
      <trkpt lat="45.861900078164055" lon="7.569616537562984">
        <ele>2301.4795572586836</ele>
      </trkpt>
      <trkpt lat="45.8624237946274" lon="7.568095744843789">
        <ele>2283.2924491357</ele>
      </trkpt>
      <trkpt lat="45.86285688326184" lon="7.566553398019873">
        <ele>2316.2140230551868</ele>
      </trkpt>
      <trkpt lat="45.863493055116116" lon="7.564676648120554">
        <ele>2340.401598345987</ele>
      </trkpt>
      <trkpt lat="45.86481744607835" lon="7.564417156581263">
        <ele>2346.7477013270627</ele>
      </trkpt>
      <trkpt lat="45.86606578281759" lon="7.5628479291032455">
        <ele>2355.716812226811</ele>
      </trkpt>
      <trkpt lat="45.86639457152851" lon="7.561190748767277">
        <ele>2339.844250648181</ele>
      </trkpt>
      <trkpt lat="45.86695700128023" lon="7.559719497233784">
        <ele>2372.7548607640365</ele>
      </trkpt>
      <trkpt lat="45.867704225846616" lon="7.558305136398439">
        <ele>2431.6583365938177</ele>
      </trkpt>
      <trkpt lat="45.8678435805489" lon="7.556394168385001">
        <ele>2479.7352700471415</ele>
      </trkpt>
      <trkpt lat="45.867179287291734" lon="7.555440616078366">
        <ele>2491.708361460491</ele>
      </trkpt>
      <trkpt lat="45.86699781584302" lon="7.553544867391535">
        <ele>2491.570836212585</ele>
      </trkpt>
      <trkpt lat="45.866609964952985" lon="7.552643922004515">
        <ele>2479.5613351804614</ele>
      </trkpt>
      <trkpt lat="45.866801119520666" lon="7.550993183527077">
        <ele>2475.1684682967457</ele>
      </trkpt>
      <trkpt lat="45.866023846549446" lon="7.5491257577098025">
        <ele>2450.3789736062145</ele>
      </trkpt>
      <trkpt lat="45.86548359089919" lon="7.547051297775486">
        <ele>2467.1787535848835</ele>
      </trkpt>
      <trkpt lat="45.86538079309785" lon="7.546312759609856">
        <ele>2473.479643939531</ele>
      </trkpt>
      <trkpt lat="45.86549305505961" lon="7.545714087851474">
        <ele>2493.0677452845193</ele>
      </trkpt>
      <trkpt lat="45.86530530597931" lon="7.544613744149103">
        <ele>2503.7611861673013</ele>
      </trkpt>
      <trkpt lat="45.86478507597098" lon="7.543941983293481">
        <ele>2513.2416273510794</ele>
      </trkpt>
      <trkpt lat="45.86425349841067" lon="7.542006745146602">
        <ele>2528.2121353571606</ele>
      </trkpt>
      <trkpt lat="45.86393849514427" lon="7.540860910527428">
        <ele>2534.190213723885</ele>
      </trkpt>
      <trkpt lat="45.86398772577824" lon="7.5398782997992875">
        <ele>2539.164558570249</ele>
      </trkpt>
      <trkpt lat="45.86391692793692" lon="7.539159375166211">
        <ele>2549.089534699191</ele>
      </trkpt>
      <trkpt lat="45.864125764755215" lon="7.538065962412069">
        <ele>2566.8538284812985</ele>
      </trkpt>
      <trkpt lat="45.86412456352651" lon="7.5372405303888">
        <ele>2574.124864346919</ele>
      </trkpt>
      <trkpt lat="45.86440599078432" lon="7.536169435473376">
        <ele>2586.7804726713803</ele>
      </trkpt>
      <trkpt lat="45.86433757025069" lon="7.5355535820560995">
        <ele>2594.5217485274957</ele>
      </trkpt>
      <trkpt lat="45.86453994810638" lon="7.534094607256471">
        <ele>2602.0323025464486</ele>
      </trkpt>
      <trkpt lat="45.864392669465" lon="7.532506938075683">
        <ele>2609.8625591156897</ele>
      </trkpt>
      <trkpt lat="45.86407274984856" lon="7.531155015878586">
        <ele>2620.0774173078194</ele>
      </trkpt>
      <trkpt lat="45.86352359830083" lon="7.530020452733133">
        <ele>2651.7021740468444</ele>
      </trkpt>
      <trkpt lat="45.86358115856791" lon="7.5293985850768">
        <ele>2665.7846372874747</ele>
      </trkpt>
      <trkpt lat="45.86336559877382" lon="7.527886925002798">
        <ele>2701.0148296017196</ele>
      </trkpt>
      <trkpt lat="45.86279728308718" lon="7.527475616978056">
        <ele>2721.009655638649</ele>
      </trkpt>
      <trkpt lat="45.86218414112517" lon="7.527509682848481">
        <ele>2736.4672108841473</ele>
      </trkpt>
      <trkpt lat="45.86181491312653" lon="7.5270841585417445">
        <ele>2731.7956732779103</ele>
      </trkpt>
      <trkpt lat="45.861514821382926" lon="7.5265826308267">
        <ele>2703.819818684438</ele>
      </trkpt>
      <trkpt lat="45.861851260469344" lon="7.524786613599806">
        <ele>2616.61719384537</ele>
      </trkpt>
      <trkpt lat="45.86163030750537" lon="7.523816983778812">
        <ele>2564.1334447489003</ele>
      </trkpt>
      <trkpt lat="45.8620268560638" lon="7.523049882847448">
        <ele>2531.433872743216</ele>
      </trkpt>
      <trkpt lat="45.862362749613055" lon="7.5220019277210195">
        <ele>2505.7494887153466</ele>
      </trkpt>
      <trkpt lat="45.86325307834567" lon="7.520772546906501">
        <ele>2510.8031414158086</ele>
      </trkpt>
      <trkpt lat="45.8640617113974" lon="7.51913430222225">
        <ele>2509.0784471543707</ele>
      </trkpt>
      <trkpt lat="45.86421163819691" lon="7.518611158592159">
        <ele>2504.896977768596</ele>
      </trkpt>
      <trkpt lat="45.86411724888595" lon="7.517661216848761">
        <ele>2504.3246295125437</ele>
      </trkpt>
      <trkpt lat="45.864414664363764" lon="7.5165118456442075">
        <ele>2539.299490754545</ele>
      </trkpt>
      <trkpt lat="45.86420800396167" lon="7.515386730264041">
        <ele>2552.258953286607</ele>
      </trkpt>
      <trkpt lat="45.86353958567351" lon="7.513019835129137">
        <ele>2575.299823101976</ele>
      </trkpt>
      <trkpt lat="45.86350723772024" lon="7.511555682110466">
        <ele>2579.742516435272</ele>
      </trkpt>
      <trkpt lat="45.86314721456176" lon="7.510897646671821">
        <ele>2579.355752042725</ele>
      </trkpt>
      <trkpt lat="45.86244876864692" lon="7.511086110134303">
        <ele>2576.0972137171116</ele>
      </trkpt>
      <trkpt lat="45.861736596968136" lon="7.510393487787175">
        <ele>2577.1701244183005</ele>
      </trkpt>
      <trkpt lat="45.861543000782596" lon="7.510123765851045">
        <ele>2581.071875157764</ele>
      </trkpt>
      <trkpt lat="45.8610340858" lon="7.509941956229979">
        <ele>2583.603627710644</ele>
      </trkpt>
      <trkpt lat="45.86143174750463" lon="7.509226290060173">
        <ele>2605.1195549589875</ele>
      </trkpt>
      <trkpt lat="45.86069505315134" lon="7.507791520339894">
        <ele>2633.822654107314</ele>
      </trkpt>
      <trkpt lat="45.86054534551214" lon="7.506792740558889">
        <ele>2631.207294858382</ele>
      </trkpt>
      <trkpt lat="45.86015089314917" lon="7.506115333475931">
        <ele>2631.4077020021637</ele>
      </trkpt>
      <trkpt lat="45.85996881373469" lon="7.505272902305021">
        <ele>2637.819177482578</ele>
      </trkpt>
      <trkpt lat="45.86003571557171" lon="7.504289462767802">
        <ele>2647.00475704962</ele>
      </trkpt>
      <trkpt lat="45.859905802470905" lon="7.50336713120654">
        <ele>2677.613952101233</ele>
      </trkpt>
      <trkpt lat="45.859400881626854" lon="7.502591924667486">
        <ele>2718.2656579312925</ele>
      </trkpt>
      <trkpt lat="45.858544087060764" lon="7.502942914495044">
        <ele>2739.1018247155207</ele>
      </trkpt>
      <trkpt lat="45.8573498680679" lon="7.502742757157679">
        <ele>2764.3306705433447</ele>
      </trkpt>
      <trkpt lat="45.85667501149922" lon="7.501640507734129">
        <ele>2773.574136888859</ele>
      </trkpt>
      <trkpt lat="45.85686579055155" lon="7.4997999450778075">
        <ele>2722.9688127794275</ele>
      </trkpt>
      <trkpt lat="45.85635015733831" lon="7.499334854283904">
        <ele>2678.300153483673</ele>
      </trkpt>
      <trkpt lat="45.85594037848739" lon="7.499535258543833">
        <ele>2659.822833293169</ele>
      </trkpt>
      <trkpt lat="45.854992412580124" lon="7.498317354185104">
        <ele>2626.702700799632</ele>
      </trkpt>
      <trkpt lat="45.85492469637237" lon="7.496979430787603">
        <ele>2613.0787258566097</ele>
      </trkpt>
      <trkpt lat="45.85380918939931" lon="7.4970593182630125">
        <ele>2609.2400845251714</ele>
      </trkpt>
      <trkpt lat="45.85359896767277" lon="7.4965536771939885">
        <ele>2611.994425199703</ele>
      </trkpt>
      <trkpt lat="45.85253899527548" lon="7.495934515054224">
        <ele>2614.1025990368853</ele>
      </trkpt>
      <trkpt lat="45.85202334789281" lon="7.4954695018321145">
        <ele>2619.266805687909</ele>
      </trkpt>
      <trkpt lat="45.85145143232941" lon="7.494477346591324">
        <ele>2631.9296191933727</ele>
      </trkpt>
      <trkpt lat="45.85058320355" lon="7.4955393785391085">
        <ele>2625.2974804021615</ele>
      </trkpt>
      <trkpt lat="45.84878851194958" lon="7.497380129519575">
        <ele>2555.1254517012585</ele>
      </trkpt>
      <trkpt lat="45.848312222243266" lon="7.4978158466125">
        <ele>2539.1197945567005</ele>
      </trkpt>
      <trkpt lat="45.84749543552337" lon="7.497571762530234">
        <ele>2565.5413802216153</ele>
      </trkpt>
      <trkpt lat="45.84734288293828" lon="7.497218117003125">
        <ele>2534.8946105056975</ele>
      </trkpt>
      <trkpt lat="45.84706553722113" lon="7.496922101791365">
        <ele>2516.19431677249</ele>
      </trkpt>
      <trkpt lat="45.846537384739115" lon="7.495168322491906">
        <ele>2526.1017300506096</ele>
      </trkpt>
      <trkpt lat="45.8458148503616" lon="7.493578743624037">
        <ele>2548.5284213007526</ele>
      </trkpt>
      <trkpt lat="45.844241326522244" lon="7.491824254168033">
        <ele>2577.3265330682398</ele>
      </trkpt>
      <trkpt lat="45.84368205420486" lon="7.491799852823052">
        <ele>2581.0001167584296</ele>
      </trkpt>
      <trkpt lat="45.84297021115626" lon="7.491421853544535">
        <ele>2574.996697467799</ele>
      </trkpt>
      <trkpt lat="45.842754114268345" lon="7.489910955462993">
        <ele>2587.833856847549</ele>
      </trkpt>
      <trkpt lat="45.84271469834627" lon="7.4890103474498515">
        <ele>2592.651307702128</ele>
      </trkpt>
      <trkpt lat="45.84245680752147" lon="7.48801722539115">
        <ele>2595.8642395857605</ele>
      </trkpt>
      <trkpt lat="45.842430477533725" lon="7.4869096958539">
        <ele>2600.3680005401197</ele>
      </trkpt>
      <trkpt lat="45.84206517067866" lon="7.48594760591234">
        <ele>2612.2212767484743</ele>
      </trkpt>
      <trkpt lat="45.8420034289771" lon="7.484867596116324">
        <ele>2634.2320803171424</ele>
      </trkpt>
      <trkpt lat="45.84166807170391" lon="7.484318987475084">
        <ele>2652.743478596105</ele>
      </trkpt>
      <trkpt lat="45.84175347294943" lon="7.484052277624597">
        <ele>2657.309887962408</ele>
      </trkpt>
    </trkseg>
  </trk>
</gpx>
