<?xml version="1.0" encoding="UTF-8"?>
<gpx version="1.1" creator="Cicerone Map Portal" schemaLocation="http://www.topografix.com/GPX/1/1   http://www.topografix.com/GPX/1/1/gpx.xsd" xmlns="http://www.topografix.com/GPX/1/1" xmlns:xsi="http://www.w3.org/2001/XMLSchema-instance" xsi:schemaLocation="http://www.topografix.com/GPX/1/1 http://www.topografix.com/GPX/1/1/gpx.xsd http://www.garmin.com/xmlschemas/GpxExtensions/v3 http://www.garmin.com/xmlschemas/GpxExtensionsv3.xsd http://www.garmin.com/xmlschemas/TrackPointExtension/v1 http://www.garmin.com/xmlschemas/TrackPointExtensionv1.xsd http://www.garmin.com/xmlschemas/PowerExtension/v1 http://www.garmin.com/xmlschemas/PowerExtensionv1.xsd http://www.topografix.com/GPX/gpx_style/0/2 http://www.topografix.com/GPX/gpx_style/0/2/gpx_style.xsd" xmlns:gpxtpx="http://www.garmin.com/xmlschemas/TrackPointExtension/v1" xmlns:gpxx="http://www.garmin.com/xmlschemas/GpxExtensions/v3" xmlns:gpxpx="http://www.garmin.com/xmlschemas/PowerExtension/v1" xmlns:gpx_style="http://www.topografix.com/GPX/gpx_style/0/2">
  <metadata>
    <name>Stage-7_25-02-2020</name>
    <author>
      <name>gpx.studio</name>
      <link href="https://gpx.studio"/>
    </author>
  </metadata>
  <trk>
    <name>Stage 7</name>
    <desc>Export from Cicerone map portal</desc>
    <trkseg>
      <trkpt lat="45.83330152719999" lon="7.739607922862172">
        <ele>1923.1862113433654</ele>
      </trkpt>
      <trkpt lat="45.835322531000735" lon="7.741881827464938">
        <ele>1998.29877854591</ele>
      </trkpt>
      <trkpt lat="45.83723324646426" lon="7.741142026159313">
        <ele>2009.8358863871972</ele>
      </trkpt>
      <trkpt lat="45.83896309008449" lon="7.7414226036109435">
        <ele>2017.982184831292</ele>
      </trkpt>
      <trkpt lat="45.840969019293446" lon="7.740844982597949">
        <ele>2015.8605095761595</ele>
      </trkpt>
      <trkpt lat="45.842185714790006" lon="7.741281626360322">
        <ele>2022.089936696282</ele>
      </trkpt>
      <trkpt lat="45.843841490423465" lon="7.741183401879709">
        <ele>2000.5976927052682</ele>
      </trkpt>
      <trkpt lat="45.8446108511602" lon="7.74176856888054">
        <ele>2000.8419332304618</ele>
      </trkpt>
      <trkpt lat="45.84506369272649" lon="7.741877684590242">
        <ele>1993.5083601563117</ele>
      </trkpt>
      <trkpt lat="45.84568682102582" lon="7.742366130013353">
        <ele>1986.3250719219027</ele>
      </trkpt>
      <trkpt lat="45.84606229738403" lon="7.743071696658567">
        <ele>1985.9634930605362</ele>
      </trkpt>
      <trkpt lat="45.846633609711844" lon="7.743665572540693">
        <ele>1983.616502551655</ele>
      </trkpt>
      <trkpt lat="45.84704398568067" lon="7.744318064939716">
        <ele>1976.2032450975216</ele>
      </trkpt>
      <trkpt lat="45.84731252676937" lon="7.745079906403076">
        <ele>1963.9935912563901</ele>
      </trkpt>
      <trkpt lat="45.848063865639006" lon="7.745665956981305">
        <ele>1943.708338864763</ele>
      </trkpt>
      <trkpt lat="45.84825586222542" lon="7.745373923483289">
        <ele>1940.83168541504</ele>
      </trkpt>
      <trkpt lat="45.84847135710197" lon="7.745338725465922">
        <ele>1946.1912351215092</ele>
      </trkpt>
      <trkpt lat="45.848944816783586" lon="7.74472495399826">
        <ele>1950.7774094495508</ele>
      </trkpt>
      <trkpt lat="45.849398757032795" lon="7.744885630522836">
        <ele>1962.4843133744916</ele>
      </trkpt>
      <trkpt lat="45.849808445500855" lon="7.744661436658377">
        <ele>1967.9369849647649</ele>
      </trkpt>
      <trkpt lat="45.85041672452281" lon="7.744454349380658">
        <ele>1982.1334414244243</ele>
      </trkpt>
      <trkpt lat="45.850439536886874" lon="7.743834454937989">
        <ele>1983.8544822394672</ele>
      </trkpt>
      <trkpt lat="45.85074010135898" lon="7.743563442872314">
        <ele>1992.8366954979513</ele>
      </trkpt>
      <trkpt lat="45.85096480010268" lon="7.743115230496818">
        <ele>1998.6689444617014</ele>
      </trkpt>
      <trkpt lat="45.851282816561984" lon="7.742817660477415">
        <ele>2003.4923370109102</ele>
      </trkpt>
      <trkpt lat="45.85177386872252" lon="7.7430282811989315">
        <ele>2006.7621374649748</ele>
      </trkpt>
      <trkpt lat="45.85211428996225" lon="7.742936032290211">
        <ele>2008.5158150987459</ele>
      </trkpt>
      <trkpt lat="45.85371717682259" lon="7.742891733766187">
        <ele>2007.5239634757056</ele>
      </trkpt>
      <trkpt lat="45.85490597875083" lon="7.742865539924283">
        <ele>1983.0749768723292</ele>
      </trkpt>
      <trkpt lat="45.85537132778025" lon="7.742716241510099">
        <ele>1975.4098233221407</ele>
      </trkpt>
      <trkpt lat="45.85597080330612" lon="7.742096851081992">
        <ele>1970.9049672325855</ele>
      </trkpt>
      <trkpt lat="45.85635753198395" lon="7.741641497439012">
        <ele>1969.873392644507</ele>
      </trkpt>
      <trkpt lat="45.856914000342194" lon="7.741539778041026">
        <ele>1965.870065562803</ele>
      </trkpt>
      <trkpt lat="45.85738210096613" lon="7.741519295933816">
        <ele>1961.313357759735</ele>
      </trkpt>
      <trkpt lat="45.85792331829152" lon="7.7415471964388525">
        <ele>1950.5729071933397</ele>
      </trkpt>
      <trkpt lat="45.858298097284816" lon="7.741376049330849">
        <ele>1942.0739671240308</ele>
      </trkpt>
      <trkpt lat="45.85707146580246" lon="7.740475467334208">
        <ele>1926.5917908675376</ele>
      </trkpt>
      <trkpt lat="45.85683356065055" lon="7.740305347401008">
        <ele>1921.55412189918</ele>
      </trkpt>
      <trkpt lat="45.857084889745856" lon="7.73941745822432">
        <ele>1905.2232746619711</ele>
      </trkpt>
      <trkpt lat="45.85806665264214" lon="7.738136478501149">
        <ele>1878.7712174022004</ele>
      </trkpt>
      <trkpt lat="45.858339828006756" lon="7.737428139000846">
        <ele>1874.652755338111</ele>
      </trkpt>
      <trkpt lat="45.8580027172651" lon="7.737675037834612">
        <ele>1868.8015637006106</ele>
      </trkpt>
      <trkpt lat="45.857857032233916" lon="7.73760404983211">
        <ele>1864.1328676615906</ele>
      </trkpt>
      <trkpt lat="45.858344393546766" lon="7.73595782728293">
        <ele>1838.2178368716843</ele>
      </trkpt>
      <trkpt lat="45.85811089524451" lon="7.735993860903816">
        <ele>1833.2334075976755</ele>
      </trkpt>
      <trkpt lat="45.85854553899043" lon="7.735252632383676">
        <ele>1821.75757190911</ele>
      </trkpt>
      <trkpt lat="45.859560499505726" lon="7.733841117231902">
        <ele>1786.560833220542</ele>
      </trkpt>
      <trkpt lat="45.86036735992114" lon="7.733650935240652">
        <ele>1779.1557470462901</ele>
      </trkpt>
      <trkpt lat="45.860041632963174" lon="7.733587861237564">
        <ele>1776.2208409796208</ele>
      </trkpt>
      <trkpt lat="45.8603432797004" lon="7.733368275524968">
        <ele>1766.034281205415</ele>
      </trkpt>
      <trkpt lat="45.860849598246965" lon="7.733449210431094">
        <ele>1758.380529225692</ele>
      </trkpt>
      <trkpt lat="45.8609368555933" lon="7.733316414677177">
        <ele>1750.3015266584816</ele>
      </trkpt>
      <trkpt lat="45.85909028259783" lon="7.732082125529035">
        <ele>1710.7969517888257</ele>
      </trkpt>
      <trkpt lat="45.858771502682025" lon="7.731502923754864">
        <ele>1702.1833952919553</ele>
      </trkpt>
      <trkpt lat="45.86041427610567" lon="7.731637059423729">
        <ele>1680.9828376679247</ele>
      </trkpt>
      <trkpt lat="45.862663965610956" lon="7.730661196981295">
        <ele>1686.125128291783</ele>
      </trkpt>
      <trkpt lat="45.862863417021956" lon="7.729878614166223">
        <ele>1692.095005621988</ele>
      </trkpt>
      <trkpt lat="45.86360906811457" lon="7.72935572674136">
        <ele>1716.1442290991931</ele>
      </trkpt>
      <trkpt lat="45.863040430810024" lon="7.728890661462148">
        <ele>1731.2590278627392</ele>
      </trkpt>
      <trkpt lat="45.86191145679807" lon="7.728347095578605">
        <ele>1749.6185167295005</ele>
      </trkpt>
      <trkpt lat="45.86200840574295" lon="7.72782696127217">
        <ele>1760.5576679439139</ele>
      </trkpt>
      <trkpt lat="45.86179984019333" lon="7.727346071549973">
        <ele>1764.3230367146614</ele>
      </trkpt>
      <trkpt lat="45.86099548323915" lon="7.726814047545559">
        <ele>1789.4801322468861</ele>
      </trkpt>
      <trkpt lat="45.86041991432831" lon="7.726865190273479">
        <ele>1795.5495628644192</ele>
      </trkpt>
      <trkpt lat="45.85991663367311" lon="7.726087793781999">
        <ele>1827.6780079220794</ele>
      </trkpt>
      <trkpt lat="45.85895463874934" lon="7.7240926189969885">
        <ele>1857.2249944415557</ele>
      </trkpt>
      <trkpt lat="45.858631376305105" lon="7.723307330120698">
        <ele>1871.7952103317775</ele>
      </trkpt>
      <trkpt lat="45.85801036968471" lon="7.722922059984924">
        <ele>1894.3597675686365</ele>
      </trkpt>
      <trkpt lat="45.857441153037016" lon="7.722431349353952">
        <ele>1909.4366358925272</ele>
      </trkpt>
      <trkpt lat="45.856815147244696" lon="7.721814201732786">
        <ele>1924.771939200537</ele>
      </trkpt>
      <trkpt lat="45.856953068926195" lon="7.721524414296698">
        <ele>1941.9621849364307</ele>
      </trkpt>
      <trkpt lat="45.85681926796101" lon="7.721169249041286">
        <ele>1955.72311477239</ele>
      </trkpt>
      <trkpt lat="45.85670624687692" lon="7.720942121910852">
        <ele>1958.725192448615</ele>
      </trkpt>
      <trkpt lat="45.85661178452958" lon="7.720739966957495">
        <ele>1965.499658970297</ele>
      </trkpt>
      <trkpt lat="45.85665968472031" lon="7.7204541533741295">
        <ele>1978.7768900771566</ele>
      </trkpt>
      <trkpt lat="45.856583780762755" lon="7.7202769704985945">
        <ele>1981.2128545838632</ele>
      </trkpt>
      <trkpt lat="45.85636051291124" lon="7.719951553568379">
        <ele>1986.7906007880993</ele>
      </trkpt>
      <trkpt lat="45.85641863332451" lon="7.71930421987254">
        <ele>2003.5851763558778</ele>
      </trkpt>
      <trkpt lat="45.85635016799245" lon="7.718636688823213">
        <ele>2010.99479419427</ele>
      </trkpt>
      <trkpt lat="45.85628114227281" lon="7.717943393531622">
        <ele>2018.894378687744</ele>
      </trkpt>
      <trkpt lat="45.85581658778294" lon="7.717293382685134">
        <ele>2024.07402841397</ele>
      </trkpt>
      <trkpt lat="45.85533625187877" lon="7.7167472420629055">
        <ele>2031.53378962241</ele>
      </trkpt>
      <trkpt lat="45.85495948215134" lon="7.715990209505824">
        <ele>2044.8783627678456</ele>
      </trkpt>
      <trkpt lat="45.854046496634645" lon="7.715437448916479">
        <ele>2053.807365279158</ele>
      </trkpt>
      <trkpt lat="45.853581743683606" lon="7.715612753974471">
        <ele>2059.146792807753</ele>
      </trkpt>
      <trkpt lat="45.85306353666476" lon="7.715816210317909">
        <ele>2066.6052027977908</ele>
      </trkpt>
      <trkpt lat="45.852867353961884" lon="7.7150770127769075">
        <ele>2077.4164379692565</ele>
      </trkpt>
      <trkpt lat="45.8522954949157" lon="7.713632372901231">
        <ele>2101.0130486810567</ele>
      </trkpt>
      <trkpt lat="45.852208753792524" lon="7.711289449829262">
        <ele>2112.226760932041</ele>
      </trkpt>
      <trkpt lat="45.852031101160165" lon="7.710575247038965">
        <ele>2117.6430640450244</ele>
      </trkpt>
      <trkpt lat="45.85211065728206" lon="7.709256499691737">
        <ele>2122.4359453516126</ele>
      </trkpt>
      <trkpt lat="45.85201183775847" lon="7.7080230336726006">
        <ele>2124.3459879797497</ele>
      </trkpt>
      <trkpt lat="45.851591293072374" lon="7.706081789558418">
        <ele>2139.9086062999168</ele>
      </trkpt>
      <trkpt lat="45.851699983170136" lon="7.705277517682505">
        <ele>2151.611422745698</ele>
      </trkpt>
      <trkpt lat="45.85002892016349" lon="7.7013547173615935">
        <ele>2190.1641405028995</ele>
      </trkpt>
      <trkpt lat="45.85035025231436" lon="7.700386259200828">
        <ele>2211.034513809346</ele>
      </trkpt>
      <trkpt lat="45.849865407195864" lon="7.698809026887725">
        <ele>2232.49499047006</ele>
      </trkpt>
      <trkpt lat="45.85031268757691" lon="7.698660148663987">
        <ele>2254.5776054712424</ele>
      </trkpt>
      <trkpt lat="45.850763894250505" lon="7.6986916092011155">
        <ele>2272.3351101734247</ele>
      </trkpt>
      <trkpt lat="45.850816919085894" lon="7.69616201198028">
        <ele>2328.674489861719</ele>
      </trkpt>
      <trkpt lat="45.85091426998979" lon="7.695667692141762">
        <ele>2337.5252718980596</ele>
      </trkpt>
      <trkpt lat="45.85142510377277" lon="7.695954349380969">
        <ele>2346.1002369798903</ele>
      </trkpt>
      <trkpt lat="45.85220380053235" lon="7.694475418510358">
        <ele>2389.915587966286</ele>
      </trkpt>
      <trkpt lat="45.854102609974724" lon="7.693952180957292">
        <ele>2422.088431272405</ele>
      </trkpt>
      <trkpt lat="45.85503316883251" lon="7.6936527044825525">
        <ele>2430.4254474373433</ele>
      </trkpt>
      <trkpt lat="45.856259653561004" lon="7.693701064563085">
        <ele>2455.3409066291592</ele>
      </trkpt>
      <trkpt lat="45.8567001844003" lon="7.693242932171296">
        <ele>2472.518250692122</ele>
      </trkpt>
      <trkpt lat="45.857038877553855" lon="7.693073047866456">
        <ele>2488.4260429298997</ele>
      </trkpt>
      <trkpt lat="45.856953930291624" lon="7.692483646736094">
        <ele>2499.410451261786</ele>
      </trkpt>
      <trkpt lat="45.85753116716038" lon="7.6925094232493265">
        <ele>2513.677159292948</ele>
      </trkpt>
      <trkpt lat="45.858389126960816" lon="7.693838038278158">
        <ele>2548.285722232442</ele>
      </trkpt>
    </trkseg>
  </trk>
</gpx>
